{"type":"FeatureCollection", "features": [
{"type":"Feature","geometry":{"type":"MultiPolygon","coordinates":[[[[90.62946,34.92334],[90.60609,34.92683],[90.56933,34.92255],[90.53454,34.92572],[90.44156,34.92811],[90.42058,34.94064],[90.37322,34.93258],[90.33886,34.93754],[90.32008,34.935],[90.30333,34.92406],[90.27067,34.9284],[90.2508,34.94441],[90.21936,34.94351],[90.20145,34.93319],[90.18219,34.9113],[90.18324,34.89366],[90.16584,34.8806],[90.11919,34.86741],[90.10788,34.87326],[90.08771,34.90394],[90.01777,34.91456],[90.00572,34.90818],[89.96687,34.90183],[89.94471,34.89241],[89.92634,34.87394],[89.90261,34.87326],[89.86423,34.90162],[89.8146,34.89961],[89.82123,34.88368],[89.80954,34.87238],[89.83707,34.86689],[89.84433,34.85879],[89.84967,34.82288],[89.8658,34.81211],[89.82385,34.79832],[89.82629,34.78415],[89.80556,34.77028],[89.80617,34.75039],[89.79535,34.74535],[89.76876,34.75097],[89.7608,34.74143],[89.73035,34.73373],[89.73422,34.7154],[89.72134,34.70554],[89.73563,34.68129],[89.72386,34.66474],[89.74111,34.64628],[89.79756,34.62998],[89.79281,34.60642],[89.7756,34.59549],[89.7758,34.57602],[89.81217,34.55168],[89.80967,34.50594],[89.81632,34.48765],[89.80607,34.47648],[89.82132,34.45717],[89.81764,34.42246],[89.80689,34.41379],[89.79999,34.39254],[89.82194,34.38624],[89.81864,34.3716],[89.83915,34.35812],[89.85479,34.36142],[89.8668,34.32978],[89.8456,34.309],[89.8272,34.30029],[89.82638,34.28435],[89.83599,34.26615],[89.82027,34.22732],[89.8244,34.20249],[89.80326,34.19167],[89.81496,34.17133],[89.78345,34.15182],[89.75822,34.1543],[89.75475,34.12711],[89.70985,34.1337],[89.69145,34.12821],[89.67888,34.10766],[89.65406,34.09883],[89.64924,34.08603],[89.65431,34.05984],[89.63287,34.05137],[89.64937,34.03859],[89.67739,33.99735],[89.68598,33.96166],[89.71642,33.94863],[89.72975,33.92361],[89.76349,33.90875],[89.76184,33.90036],[89.79288,33.8674],[89.81381,33.86458],[89.83536,33.87097],[89.86058,33.85504],[89.86938,33.83263],[89.89176,33.82414],[89.8981,33.80972],[89.924,33.81124],[89.93793,33.80525],[89.91718,33.77467],[89.90054,33.76052],[89.90555,33.74312],[89.93774,33.74325],[89.98193,33.72776],[89.9795,33.70569],[90.00235,33.69564],[89.99091,33.67008],[89.99906,33.66113],[89.98907,33.64458],[89.98213,33.6141],[89.98623,33.58561],[90.00628,33.55868],[90.01972,33.54946],[90.07904,33.53235],[90.08984,33.4716],[90.10563,33.46295],[90.19899,33.43797],[90.21825,33.43973],[90.24478,33.42606],[90.33136,33.3127],[90.36563,33.28338],[90.38626,33.27897],[90.40428,33.26238],[90.47929,33.26781],[90.51759,33.2454],[90.54235,33.24067],[90.56317,33.23014],[90.57138,33.21789],[90.60115,33.20416],[90.62997,33.17736],[90.68074,33.15337],[90.70419,33.13795],[90.74656,33.14395],[90.80226,33.11664],[90.81789,33.12018],[90.84208,33.1131],[90.85578,33.11956],[90.88304,33.12151],[90.89229,33.09952],[90.92638,33.12264],[90.95155,33.11808],[90.96576,33.12234],[91.00085,33.11868],[91.01043,33.12365],[91.03611,33.10077],[91.07026,33.11501],[91.13143,33.07649],[91.1711,33.11569],[91.18642,33.1085],[91.19405,33.12745],[91.21415,33.12916],[91.22449,33.14353],[91.25982,33.14349],[91.28833,33.12857],[91.31017,33.11011],[91.32518,33.11049],[91.37224,33.10169],[91.40315,33.08259],[91.42537,33.08111],[91.43432,33.0682],[91.45724,33.07607],[91.46067,33.09406],[91.49509,33.11124],[91.50563,33.10231],[91.53439,33.10229],[91.55886,33.07849],[91.55261,33.06969],[91.56458,33.05172],[91.57954,33.04184],[91.66331,33.01541],[91.66359,33.00214],[91.68198,32.99241],[91.72423,32.98622],[91.72895,32.97478],[91.74997,32.97193],[91.77948,32.9484],[91.79805,32.94428],[91.81056,32.95703],[91.83855,32.95037],[91.85902,32.90471],[91.896,32.90976],[91.89607,32.8876],[91.9065,32.87413],[91.92146,32.87197],[91.94064,32.83818],[91.95673,32.8221],[91.99218,32.82785],[91.99658,32.83748],[92.02147,32.8322],[92.02469,32.85183],[92.03853,32.86367],[92.10069,32.86253],[92.11737,32.87892],[92.13785,32.88674],[92.15226,32.8758],[92.20414,32.86846],[92.20385,32.86011],[92.22961,32.84256],[92.22639,32.82328],[92.215,32.82182],[92.19267,32.80439],[92.20836,32.7947],[92.20476,32.76583],[92.19753,32.75715],[92.21933,32.73638],[92.23304,32.74087],[92.25427,32.72316],[92.28988,32.73166],[92.30361,32.75295],[92.3297,32.7497],[92.3352,32.74104],[92.36989,32.76278],[92.40971,32.75001],[92.43408,32.76376],[92.45431,32.76696],[92.48699,32.74617],[92.50527,32.74719],[92.52367,32.7366],[92.54243,32.73965],[92.56007,32.7344],[92.58061,32.7574],[92.59389,32.82394],[92.59548,32.87243],[92.62631,32.88811],[92.64811,32.90511],[92.65566,32.94322],[92.6737,32.95497],[92.69597,32.9853],[92.68859,33.00021],[92.70224,33.02575],[92.72876,33.04046],[92.73085,33.06329],[92.71705,33.10384],[92.67259,33.13523],[92.66966,33.14951],[92.71085,33.19347],[92.70928,33.22005],[92.72005,33.2342],[92.71072,33.24987],[92.67812,33.26914],[92.63233,33.28707],[92.61999,33.28575],[92.59765,33.30581],[92.60984,33.32122],[92.599,33.35584],[92.61959,33.36974],[92.65471,33.3841],[92.65634,33.41122],[92.66852,33.43454],[92.68361,33.44844],[92.68637,33.46745],[92.69713,33.47495],[92.73031,33.46066],[92.75913,33.47594],[92.79285,33.47135],[92.8144,33.47935],[92.84795,33.50124],[92.85504,33.51477],[92.85098,33.5362],[92.81798,33.55719],[92.80647,33.57278],[92.81399,33.59569],[92.81193,33.61836],[92.78323,33.63874],[92.79193,33.65512],[92.79663,33.68654],[92.76173,33.70493],[92.77191,33.71933],[92.75531,33.74935],[92.75167,33.76716],[92.76076,33.79341],[92.74529,33.81662],[92.74059,33.8493],[92.75164,33.8712],[92.74068,33.90092],[92.74173,33.91758],[92.72261,33.92461],[92.71653,33.96597],[92.72539,33.98387],[92.75491,34.00282],[92.78118,34.03748],[92.83441,34.03279],[92.85149,34.04715],[92.86769,34.04612],[92.8771,34.06252],[92.90176,34.07069],[92.91195,34.08987],[92.89609,34.09458],[92.86961,34.09197],[92.83249,34.08059],[92.82585,34.07297],[92.8024,34.08441],[92.75087,34.07022],[92.73425,34.07859],[92.71233,34.0721],[92.6896,34.08537],[92.68663,34.09543],[92.6519,34.12476],[92.65948,34.14649],[92.6438,34.17496],[92.6309,34.18905],[92.61193,34.24148],[92.592,34.27828],[92.57782,34.29229],[92.55358,34.34386],[92.53992,34.38175],[92.54553,34.40374],[92.53679,34.4131],[92.5069,34.41306],[92.49021,34.37992],[92.43752,34.38234],[92.42299,34.39127],[92.364,34.38082],[92.29743,34.38432],[92.27328,34.38028],[92.231,34.37929],[92.21098,34.39765],[92.16579,34.40457],[92.098,34.43616],[92.06492,34.44393],[92.04601,34.45611],[92.00371,34.47547],[91.93927,34.48896],[91.9277,34.50805],[91.92958,34.51937],[91.96526,34.55696],[91.95746,34.57826],[91.8785,34.58682],[91.85256,34.59435],[91.82743,34.62233],[91.80694,34.62661],[91.75947,34.62664],[91.73718,34.64783],[91.72518,34.66873],[91.70277,34.67199],[91.67411,34.66331],[91.59051,34.69699],[91.54445,34.71009],[91.45183,34.72565],[91.34838,34.76319],[91.31996,34.79117],[91.2623,34.79076],[91.2313,34.80417],[91.15451,34.79872],[91.12471,34.78222],[91.09482,34.79743],[91.06737,34.79601],[91.05527,34.78951],[91.05832,34.76369],[91.02275,34.76763],[91.00243,34.74652],[90.95975,34.75726],[90.9408,34.77479],[90.94694,34.79964],[90.92267,34.81325],[90.91754,34.83599],[90.87566,34.85455],[90.84507,34.86235],[90.77986,34.89175],[90.72714,34.88886],[90.71569,34.90142],[90.67842,34.90451],[90.65245,34.89731],[90.62946,34.92334]]],[[[95.30219,37.19193],[95.25528,37.20408],[95.21011,37.23194],[95.18296,37.25286],[95.13217,37.27051],[95.10106,37.27356],[95.05338,37.27113],[95.03532,37.26664],[95.00555,37.26799],[94.99162,37.27889],[94.92224,37.29024],[94.86808,37.30461],[94.81446,37.32335],[94.76985,37.32168],[94.74985,37.33198],[94.73805,37.35474],[94.69433,37.36219],[94.66052,37.37769],[94.60069,37.41787],[94.59625,37.43341],[94.53202,37.48719],[94.4903,37.51879],[94.45284,37.54188],[94.42745,37.54962],[94.38034,37.58477],[94.35379,37.60981],[94.31603,37.63715],[94.30175,37.64264],[94.21546,37.6604],[94.17176,37.65982],[94.13677,37.66516],[94.06483,37.65984],[93.99327,37.66139],[93.9581,37.67361],[93.93412,37.68638],[93.91873,37.68605],[93.8722,37.66632],[93.85775,37.64642],[93.86547,37.63039],[93.81534,37.62769],[93.8123,37.60799],[93.75722,37.60807],[93.7195,37.58997],[93.6496,37.60104],[93.63447,37.57782],[93.52091,37.62549],[93.3939,37.62615],[93.28189,37.62786],[93.24423,37.66392],[93.22562,37.67468],[93.21226,37.6965],[93.18631,37.72198],[93.15169,37.74342],[93.11026,37.76209],[93.10372,37.76071],[93.08684,37.73786],[93.08803,37.69603],[93.09244,37.6808],[93.06035,37.65943],[93.00698,37.6493],[92.9926,37.64358],[92.97687,37.58657],[92.96196,37.56367],[92.96081,37.55081],[92.98783,37.50843],[92.98421,37.49944],[92.93901,37.50522],[92.90561,37.50061],[92.89126,37.48587],[92.87538,37.48663],[92.83702,37.49953],[92.78341,37.50577],[92.7412,37.5224],[92.69324,37.52202],[92.64733,37.55198],[92.63598,37.55025],[92.6112,37.52474],[92.56523,37.52291],[92.54944,37.51322],[92.548,37.49128],[92.56298,37.46883],[92.55029,37.44304],[92.52438,37.41572],[92.51603,37.39803],[92.45984,37.33205],[92.43398,37.32931],[92.41865,37.31826],[92.37113,37.26443],[92.30246,37.25077],[92.2654,37.23116],[92.24477,37.21385],[92.17767,37.23156],[92.16748,37.24469],[92.14029,37.25227],[92.07472,37.23148],[92.04981,37.23069],[92.03163,37.23766],[92.00945,37.23098],[91.99938,37.21613],[91.98156,37.21232],[91.93819,37.17796],[91.92113,37.15598],[91.87665,37.11583],[91.8119,37.09187],[91.7866,37.09122],[91.77087,37.07025],[91.73334,37.05782],[91.7147,37.0337],[91.67101,37.03528],[91.64398,37.02167],[91.61956,37.0248],[91.59508,37.03449],[91.57613,37.03471],[91.54063,37.04769],[91.50534,37.06614],[91.4786,37.06593],[91.4396,37.07403],[91.42127,37.08621],[91.39222,37.08891],[91.37169,37.09613],[91.33872,37.0921],[91.30335,37.10323],[91.2857,37.10398],[91.30168,37.08504],[91.30055,37.06034],[91.2886,37.0474],[91.30404,37.03605],[91.3095,37.01509],[91.27535,37.01216],[91.25065,37.01465],[91.21481,37.01019],[91.18921,37.02461],[91.1319,37.00758],[91.12532,36.97828],[91.1112,36.97033],[91.04997,36.96718],[91.0354,36.92948],[90.98236,36.91382],[90.96454,36.91867],[90.87234,36.92078],[90.85284,36.91576],[90.81231,36.88204],[90.7929,36.86122],[90.78763,36.84582],[90.75492,36.82532],[90.73214,36.82742],[90.72092,36.79839],[90.72562,36.75619],[90.75352,36.72144],[90.72061,36.7103],[90.7067,36.65889],[90.72158,36.66151],[90.73401,36.63368],[90.72096,36.6202],[90.73951,36.58616],[90.77762,36.58233],[90.81151,36.58594],[90.82518,36.57688],[90.83163,36.55847],[90.85317,36.5612],[90.90565,36.56003],[91.00987,36.5401],[91.03369,36.52855],[91.0255,36.51047],[91.03508,36.49725],[91.03809,36.47506],[91.02672,36.44354],[91.05096,36.42667],[91.03125,36.39685],[91.04046,36.38627],[91.02761,36.3572],[91.03463,36.3401],[91.02483,36.32402],[91.07235,36.29788],[91.07441,36.28797],[91.05386,36.27047],[91.04618,36.24467],[91.05438,36.23454],[91.09512,36.21957],[91.09085,36.1867],[91.10043,36.17421],[91.09042,36.16427],[91.12094,36.15515],[91.14493,36.1401],[91.18121,36.13206],[91.25359,36.10838],[91.29042,36.08176],[91.31479,36.07469],[91.39024,36.06563],[91.44025,36.07918],[91.47574,36.09205],[91.52214,36.12104],[91.52636,36.13352],[91.5507,36.1491],[91.56871,36.15305],[91.54757,36.09584],[91.59282,36.05161],[91.61483,36.04977],[91.63025,36.03854],[91.64473,36.044],[91.6782,36.0377],[91.71813,36.02104],[91.74923,36.0121],[91.79184,36.00597],[91.88438,36.02556],[91.9089,36.01625],[91.96666,36.0071],[91.97309,35.98902],[92.03229,35.96199],[92.05622,35.95755],[92.13998,35.93547],[92.15337,35.92744],[92.23397,35.91093],[92.25693,35.90826],[92.3131,35.91175],[92.34991,35.8969],[92.3681,35.91058],[92.40506,35.91545],[92.45096,35.89858],[92.49593,35.89474],[92.52669,35.88769],[92.59103,35.87915],[92.69443,35.87795],[92.75507,35.86968],[92.80136,35.86715],[92.82884,35.86956],[92.86517,35.86304],[92.9145,35.84863],[92.99281,35.83386],[93.01495,35.84961],[93.06565,35.84183],[93.08536,35.80751],[93.14556,35.80041],[93.17263,35.79172],[93.22412,35.79101],[93.26401,35.77805],[93.38383,35.7774],[93.40679,35.77246],[93.44695,35.7739],[93.51473,35.75764],[93.52976,35.76189],[93.53805,35.78181],[93.58592,35.77169],[93.62637,35.75657],[93.65934,35.75433],[93.68004,35.76558],[93.69623,35.7524],[93.7255,35.75122],[93.74687,35.75971],[93.76045,35.7568],[93.76782,35.7377],[93.78748,35.72964],[93.83463,35.72285],[93.84907,35.71031],[93.88808,35.70287],[93.91427,35.70938],[93.93288,35.70723],[93.96237,35.68926],[94.00721,35.6741],[94.03097,35.64912],[94.06052,35.63685],[94.09151,35.64249],[94.12104,35.64076],[94.1351,35.65914],[94.1539,35.66981],[94.19482,35.66231],[94.21286,35.64934],[94.2378,35.66148],[94.26479,35.63904],[94.27925,35.63356],[94.31252,35.63873],[94.34251,35.62893],[94.36215,35.62926],[94.38294,35.61746],[94.40602,35.61441],[94.43272,35.62402],[94.46009,35.60658],[94.48767,35.60267],[94.50544,35.61029],[94.57896,35.60247],[94.58678,35.59434],[94.62005,35.60252],[94.68588,35.58854],[94.71061,35.5947],[94.71696,35.6079],[94.75794,35.60712],[94.78566,35.59153],[94.81129,35.61628],[94.8234,35.60521],[94.82715,35.58373],[94.89375,35.59029],[94.9405,35.56747],[94.96375,35.56552],[94.97559,35.57283],[95.00865,35.54665],[95.02016,35.55257],[95.08895,35.54571],[95.09803,35.51725],[95.11209,35.51204],[95.12558,35.53573],[95.11869,35.54707],[95.13353,35.57354],[95.14699,35.57756],[95.15487,35.59632],[95.14582,35.60384],[95.1472,35.63062],[95.17399,35.64809],[95.21082,35.64017],[95.24862,35.64772],[95.27796,35.63817],[95.31981,35.64089],[95.35635,35.62643],[95.37042,35.60319],[95.39571,35.59812],[95.43248,35.60166],[95.45905,35.61774],[95.46744,35.64733],[95.47787,35.65829],[95.57026,35.65399],[95.63219,35.65988],[95.64817,35.64703],[95.65505,35.72179],[95.67476,35.7838],[95.68509,35.79673],[95.68424,35.82331],[95.70756,35.85779],[95.70631,35.87722],[95.64456,35.88504],[95.61101,35.88395],[95.57151,35.90648],[95.58078,35.92103],[95.57064,35.94641],[95.54005,36.0003],[95.56308,36.01803],[95.60413,36.06504],[95.62793,36.08606],[95.64643,36.08575],[95.65436,36.11657],[95.66853,36.13731],[95.69829,36.21092],[95.69788,36.22268],[95.71705,36.27595],[95.71783,36.316],[95.72481,36.33878],[95.77289,36.36791],[95.78151,36.3763],[95.80378,36.42779],[95.80284,36.45438],[95.70539,36.45649],[95.63654,36.44625],[95.60792,36.43822],[95.53833,36.43726],[95.53402,36.44421],[95.48225,36.68637],[95.46947,36.73398],[95.4411,36.7369],[95.44194,36.78956],[95.4468,36.86677],[95.44361,36.89787],[95.4188,36.91815],[95.33983,37.00396],[95.33501,37.01536],[95.30027,37.18725],[95.30219,37.19193]]]]},"properties":{"dt_adcode":"632801","dt_name":"格尔木市","ct_adcode":"632800","ct_name":"海西蒙古族藏族自治州","pr_name":"青海省"}},
{"type":"Feature","geometry":{"type":"Polygon","coordinates":[[[98.09804,37.24992],[98.0909,37.27687],[98.11277,37.29845],[98.13235,37.30027],[98.11761,37.32452],[98.10098,37.33537],[98.12413,37.35131],[98.14388,37.37152],[98.14196,37.41124],[98.11462,37.4145],[98.10934,37.43814],[98.09337,37.44638],[98.11227,37.47118],[98.10634,37.52087],[98.11477,37.52662],[98.10969,37.54713],[98.04715,37.5592],[98.03918,37.57332],[98.03652,37.60813],[98.05332,37.61742],[98.03597,37.63545],[98.04883,37.65675],[98.06718,37.66814],[98.06421,37.68787],[98.02903,37.67293],[98.02205,37.69037],[98.00632,37.69843],[97.99452,37.7164],[97.96509,37.73074],[97.93952,37.72977],[97.92931,37.73974],[97.9418,37.75871],[97.9306,37.77948],[97.91173,37.77938],[97.89218,37.80877],[97.87418,37.8096],[97.86109,37.83079],[97.86695,37.84645],[97.84077,37.87762],[97.81896,37.89543],[97.81271,37.91477],[97.77081,37.93215],[97.75811,37.96785],[97.76415,38.00084],[97.78067,38.03177],[97.79531,38.04245],[97.78537,38.06406],[97.79215,38.08676],[97.81589,38.11431],[97.76156,38.19092],[97.78908,38.24864],[97.7895,38.26975],[97.77491,38.2945],[97.75328,38.30139],[97.7427,38.3138],[97.70913,38.33621],[97.67674,38.3654],[97.66042,38.38512],[97.61988,38.39349],[97.58649,38.41015],[97.55788,38.40379],[97.5235,38.41114],[97.4882,38.41316],[97.41754,38.43625],[97.40562,38.4459],[97.39943,38.47435],[97.42238,38.49592],[97.40678,38.51048],[97.37455,38.5126],[97.33962,38.52284],[97.32353,38.54197],[97.32982,38.56123],[97.35507,38.57559],[97.34913,38.61292],[97.33749,38.61701],[97.34279,38.64013],[97.31782,38.65296],[97.29804,38.65296],[97.28108,38.67193],[97.29085,38.70226],[97.26862,38.7053],[97.2301,38.69052],[97.20068,38.7024],[97.16014,38.72805],[97.15923,38.74496],[97.14754,38.75356],[97.13888,38.78608],[97.13712,38.81104],[97.16367,38.83392],[97.17197,38.86566],[97.14159,38.86296],[97.1164,38.87301],[97.1001,38.86821],[97.05574,38.88532],[97.03323,38.88639],[97.0133,38.87855],[96.99265,38.8838],[96.98316,38.86971],[96.99317,38.83571],[96.98725,38.79139],[97.00009,38.76078],[97.0224,38.75511],[97.02105,38.73114],[97.00856,38.70232],[97.02915,38.67964],[97.05677,38.67234],[97.04653,38.65349],[97.05524,38.59407],[96.98571,38.56551],[96.96039,38.55768],[96.92544,38.56431],[96.89892,38.58058],[96.87662,38.58058],[96.84649,38.59926],[96.81274,38.6083],[96.79394,38.60776],[96.8049,38.57034],[96.7826,38.56672],[96.76693,38.55226],[96.77176,38.54321],[96.80008,38.52755],[96.79466,38.51007],[96.78019,38.50404],[96.70642,38.50525],[96.6799,38.49861],[96.66605,38.48355],[96.70771,38.45893],[96.69763,38.42195],[96.67938,38.41149],[96.66313,38.38832],[96.62611,38.35543],[96.62354,38.34509],[96.63877,38.30732],[96.66312,38.2595],[96.66489,38.23004],[96.5245,38.26185],[96.46302,38.2774],[96.39898,38.28134],[96.37759,38.2769],[96.3351,38.24583],[96.30122,38.18291],[96.31251,38.16164],[96.26373,38.14561],[96.25194,38.16722],[96.22703,38.1694],[96.22153,38.14881],[96.20865,38.14993],[96.1543,38.17402],[96.11461,38.18016],[96.10082,38.18766],[96.07291,38.18786],[96.06373,38.17244],[96.04316,38.18012],[96.0224,38.19882],[95.97073,38.2178],[95.95388,38.22863],[95.93778,38.22378],[95.92842,38.19065],[95.88387,38.16935],[95.86702,38.15359],[95.85731,38.13258],[95.82526,38.12211],[95.81632,38.11017],[95.79136,38.04421],[95.78782,38.00279],[95.75989,37.99248],[95.72633,37.97227],[95.72434,37.91493],[95.73157,37.86763],[95.7449,37.84266],[95.76642,37.82706],[95.7555,37.78144],[95.74069,37.7656],[95.75443,37.75454],[95.75331,37.74004],[95.76359,37.71252],[95.71935,37.68911],[95.71631,37.66305],[95.75424,37.65993],[95.85549,37.62648],[95.85876,37.61791],[95.89578,37.60747],[95.9116,37.60892],[95.99816,37.59337],[96.0564,37.55671],[96.06039,37.53747],[96.0775,37.4994],[96.12988,37.4806],[96.17093,37.47069],[96.19848,37.47978],[96.21304,37.46555],[96.20582,37.44648],[96.17185,37.4366],[96.16457,37.41869],[96.17679,37.40319],[96.1778,37.38764],[96.14001,37.2437],[96.12769,37.19271],[96.1388,37.19323],[96.17672,37.17801],[96.20182,37.17529],[96.26022,37.13705],[96.27366,37.12295],[96.30204,37.10615],[96.34962,37.10086],[96.38705,37.08301],[96.4174,37.0848],[96.47455,37.07025],[96.50613,37.02852],[96.55964,36.99399],[96.61361,36.96883],[96.66065,36.94044],[96.70637,36.92637],[96.75665,36.9467],[96.79592,36.94846],[96.84675,36.93061],[96.93235,36.93483],[96.95357,36.94132],[96.99845,36.96725],[97.03619,36.96149],[97.06337,36.95222],[97.17209,36.95686],[97.20844,36.94339],[97.25028,36.9329],[97.27098,36.93339],[97.31522,36.94345],[97.36398,36.94349],[97.47847,36.95648],[97.49941,36.95684],[97.51052,36.94602],[97.55037,36.94777],[97.56646,36.93577],[97.58455,36.9354],[97.60819,36.91469],[97.64639,36.89206],[97.68168,36.91264],[97.72107,36.9214],[97.75183,36.94876],[97.80861,36.94042],[97.83458,36.9487],[97.82262,36.96531],[97.835,36.98239],[97.8532,36.97645],[97.88953,36.97706],[97.92852,36.99078],[97.92311,37.05171],[97.93154,37.09921],[97.94387,37.11473],[97.94442,37.13694],[97.97194,37.16206],[97.98849,37.1964],[98.00459,37.20414],[98.00837,37.23705],[98.0243,37.24757],[98.04211,37.24605],[98.09804,37.24992]]]},"properties":{"dt_adcode":"632802","dt_name":"德令哈市","ct_adcode":"632800","ct_name":"海西蒙古族藏族自治州","pr_name":"青海省"}},
{"type":"Feature","geometry":{"type":"Polygon","coordinates":[[[94.08365,38.73782],[93.97168,38.72467],[93.95013,38.71503],[93.90633,38.72136],[93.8707,38.72249],[93.79887,38.75056],[93.76843,38.77685],[93.75486,38.80735],[93.76854,38.8206],[93.88298,38.82607],[93.88349,38.8675],[93.83302,38.86742],[93.74662,38.91197],[93.72765,38.92413],[93.508,38.91767],[93.45152,38.91494],[93.33063,38.90364],[93.30099,38.89366],[93.27248,38.89579],[93.23648,38.9158],[93.20537,38.91552],[93.17776,38.92345],[93.18417,38.94694],[93.19666,39.04553],[93.17408,39.06858],[93.16403,39.09014],[93.13144,39.10646],[93.12506,39.12211],[93.13688,39.1562],[93.12871,39.17214],[93.11372,39.17892],[93.07246,39.15962],[93.0641,39.1503],[93.04166,39.14587],[92.9923,39.15135],[92.9773,39.14312],[92.95786,39.16482],[92.93792,39.16929],[92.88811,39.1596],[92.86587,39.13836],[92.83009,39.14351],[92.81509,39.13376],[92.77952,39.13924],[92.72662,39.12119],[92.71407,39.12635],[92.68659,39.11491],[92.6625,39.11054],[92.64435,39.11967],[92.60944,39.10866],[92.54474,39.11099],[92.53971,39.10135],[92.4928,39.10169],[92.4592,39.06569],[92.4577,39.04221],[92.42177,39.04602],[92.40465,39.03278],[92.41705,39.01248],[92.38122,38.99973],[92.32222,39.00247],[92.26296,39.00176],[92.19694,38.98308],[92.1717,38.96016],[92.14867,38.958],[92.10415,38.96213],[92.08937,38.95356],[92.03688,38.94936],[92.02144,38.94004],[91.98912,38.93832],[91.9236,38.91324],[91.88182,38.89998],[91.87766,38.88249],[91.85875,38.87727],[91.80502,38.8724],[91.77755,38.86181],[91.7532,38.86916],[91.72663,38.86502],[91.70417,38.8679],[91.67071,38.85391],[91.63999,38.85502],[91.61204,38.83895],[91.58278,38.83535],[91.55142,38.82614],[91.53423,38.82671],[91.49989,38.81507],[91.44466,38.81307],[91.39354,38.79312],[91.34998,38.76787],[91.32821,38.76599],[91.30609,38.75074],[91.26901,38.74526],[91.24844,38.75256],[91.2179,38.74497],[91.18699,38.73091],[91.13005,38.71888],[91.1121,38.70736],[91.08628,38.70956],[91.03191,38.70249],[91.01694,38.69663],[90.96398,38.69683],[90.90448,38.6809],[90.83253,38.66904],[90.80218,38.65499],[90.79752,38.667],[90.76074,38.66022],[90.7231,38.65796],[90.7005,38.66743],[90.65828,38.67452],[90.61823,38.66441],[90.63892,38.64406],[90.60716,38.61323],[90.60312,38.59388],[90.5617,38.59372],[90.53108,38.58098],[90.53409,38.56791],[90.49832,38.55527],[90.46182,38.55647],[90.4549,38.54709],[90.46187,38.51992],[90.43944,38.51074],[90.41841,38.49068],[90.39786,38.4904],[90.35696,38.48102],[90.31332,38.50167],[90.27164,38.49941],[90.24961,38.49128],[90.2271,38.49591],[90.20739,38.4913],[90.1287,38.49387],[90.10841,38.47266],[90.10976,38.41869],[90.1265,38.39989],[90.13652,38.40372],[90.17723,38.39683],[90.15791,38.35995],[90.13567,38.34032],[90.20553,38.28781],[90.279,38.23795],[90.35099,38.23324],[90.35975,38.2999],[90.39991,38.31092],[90.52942,38.31966],[90.51487,38.20718],[90.51608,38.00035],[90.51812,37.73102],[90.57805,37.72048],[90.58528,37.70301],[90.61346,37.69689],[90.64475,37.69747],[90.65738,37.70373],[90.67552,37.68262],[90.71632,37.67397],[90.74073,37.66445],[90.74151,37.65611],[90.77461,37.65034],[90.8054,37.63127],[90.82355,37.61034],[90.85318,37.60406],[90.857,37.59369],[90.88119,37.57568],[90.86797,37.56104],[90.86237,37.5364],[90.93579,37.50231],[90.93618,37.48494],[90.95651,37.47756],[90.99885,37.49433],[91.05525,37.48346],[91.09373,37.45174],[91.10727,37.42725],[91.10961,37.39159],[91.13526,37.35278],[91.13307,37.32383],[91.15753,37.31252],[91.17085,37.29888],[91.17108,37.28328],[91.19032,37.27762],[91.18741,37.24667],[91.19235,37.23276],[91.19056,37.20432],[91.21692,37.19901],[91.23398,37.1791],[91.25323,37.17705],[91.27872,37.1637],[91.2857,37.10398],[91.30335,37.10323],[91.33872,37.0921],[91.37169,37.09613],[91.39222,37.08891],[91.42127,37.08621],[91.4396,37.07403],[91.4786,37.06593],[91.50534,37.06614],[91.54063,37.04769],[91.57613,37.03471],[91.59508,37.03449],[91.61956,37.0248],[91.64398,37.02167],[91.67101,37.03528],[91.7147,37.0337],[91.73334,37.05782],[91.77087,37.07025],[91.7866,37.09122],[91.8119,37.09187],[91.87665,37.11583],[91.92113,37.15598],[91.93819,37.17796],[91.98156,37.21232],[91.99938,37.21613],[92.00945,37.23098],[92.03163,37.23766],[92.04981,37.23069],[92.07472,37.23148],[92.14029,37.25227],[92.16748,37.24469],[92.17767,37.23156],[92.24477,37.21385],[92.2654,37.23116],[92.30246,37.25077],[92.37113,37.26443],[92.41865,37.31826],[92.43398,37.32931],[92.45984,37.33205],[92.51603,37.39803],[92.52438,37.41572],[92.55029,37.44304],[92.56298,37.46883],[92.548,37.49128],[92.54944,37.51322],[92.56523,37.52291],[92.6112,37.52474],[92.63598,37.55025],[92.64733,37.55198],[92.69324,37.52202],[92.7412,37.5224],[92.78341,37.50577],[92.83702,37.49953],[92.87538,37.48663],[92.89126,37.48587],[92.90561,37.50061],[92.93901,37.50522],[92.98421,37.49944],[92.98783,37.50843],[92.96081,37.55081],[92.96196,37.56367],[92.97687,37.58657],[92.9926,37.64358],[93.00698,37.6493],[93.06035,37.65943],[93.09244,37.6808],[93.08803,37.69603],[93.08684,37.73786],[93.10372,37.76071],[93.05386,37.7969],[92.99914,37.81658],[93.00598,37.82958],[93.02512,37.8382],[93.05386,37.83379],[93.12245,37.83159],[93.1417,37.84355],[93.14445,37.86633],[93.12382,37.88257],[93.10459,37.92157],[93.14032,37.92377],[93.19535,37.92062],[93.23384,37.91308],[93.28187,37.91523],[93.38738,37.91074],[93.44509,37.90427],[93.49469,37.90439],[93.61768,37.89826],[93.64344,37.91016],[93.6583,37.94456],[93.68557,37.96604],[93.72721,37.98996],[93.7708,37.99865],[93.80382,38.01276],[93.83274,38.00415],[93.8589,38.02043],[93.90841,38.03129],[93.94271,38.01394],[93.98244,37.97704],[94.03583,37.93789],[94.05775,37.93785],[94.07696,37.95299],[94.07833,37.96815],[94.09344,37.98547],[94.05775,38.05692],[94.05775,38.07422],[94.09206,38.11527],[94.15671,38.18445],[94.17737,38.21688],[94.19527,38.22662],[94.23105,38.26226],[94.2654,38.27197],[94.28873,38.28812],[94.2654,38.30323],[94.24892,38.33233],[94.21592,38.35923],[94.187,38.40655],[94.11816,38.44087],[93.95777,38.4702],[93.95503,38.4831],[93.97968,38.52709],[94.03307,38.54627],[94.08517,38.57195],[94.10578,38.61272],[94.09616,38.63525],[94.09066,38.66741],[94.07693,38.69207],[94.09066,38.71563],[94.08365,38.73782]]]},"properties":{"dt_adcode":"632803","dt_name":"茫崖市","ct_adcode":"632800","ct_name":"海西蒙古族藏族自治州","pr_name":"青海省"}},
{"type":"Feature","geometry":{"type":"Polygon","coordinates":[[[99.16104,36.95302],[99.13711,36.9451],[99.12015,36.95232],[99.10514,36.94749],[99.0683,36.95841],[99.05883,36.96607],[99.03121,36.96472],[99.00011,36.95619],[98.99101,36.94838],[98.98095,36.92029],[98.96177,36.91],[98.93375,36.90654],[98.9118,36.91586],[98.92778,36.94192],[98.96789,36.95884],[98.97258,36.97978],[98.95903,36.98072],[98.92996,37.0082],[98.90904,37.07505],[98.90307,37.07863],[98.84499,37.06185],[98.84048,37.08334],[98.827,37.10959],[98.82993,37.13108],[98.79617,37.16565],[98.79394,37.1913],[98.80633,37.20094],[98.78098,37.22685],[98.75043,37.23562],[98.73549,37.23196],[98.70854,37.24303],[98.69686,37.23895],[98.66014,37.26222],[98.61183,37.27588],[98.57972,37.28846],[98.53422,37.28732],[98.47522,37.27574],[98.45332,37.25909],[98.43569,37.28725],[98.43432,37.29882],[98.41494,37.32911],[98.40163,37.32753],[98.35251,37.30491],[98.33107,37.30726],[98.25091,37.28435],[98.22632,37.27542],[98.20071,37.22521],[98.13148,37.23144],[98.09804,37.24992],[98.04211,37.24605],[98.0243,37.24757],[98.00837,37.23705],[98.00459,37.20414],[97.98849,37.1964],[97.97194,37.16206],[97.94442,37.13694],[97.94387,37.11473],[97.93154,37.09921],[97.92311,37.05171],[97.92852,36.99078],[97.88953,36.97706],[97.8532,36.97645],[97.835,36.98239],[97.82262,36.96531],[97.83458,36.9487],[97.80861,36.94042],[97.75183,36.94876],[97.72107,36.9214],[97.68168,36.91264],[97.64639,36.89206],[97.60819,36.91469],[97.58455,36.9354],[97.56646,36.93577],[97.55037,36.94777],[97.51052,36.94602],[97.49941,36.95684],[97.47847,36.95648],[97.36398,36.94349],[97.31522,36.94345],[97.27098,36.93339],[97.25028,36.9329],[97.20844,36.94339],[97.17209,36.95686],[97.09896,36.7823],[97.04352,36.64694],[97.1703,36.51692],[97.23096,36.48848],[97.2628,36.46216],[97.29283,36.44511],[97.3175,36.46494],[97.39453,36.43698],[97.48356,36.37817],[97.56362,36.36156],[97.63571,36.34216],[97.70006,36.32185],[97.74241,36.33301],[97.78514,36.33077],[97.80633,36.33367],[97.81842,36.3429],[97.81787,36.3748],[97.95355,36.49467],[98.02229,36.54567],[98.00066,36.63314],[98.00009,36.67056],[98.01411,36.68126],[98.07051,36.6978],[98.11942,36.6959],[98.13532,36.67863],[98.16606,36.66316],[98.18328,36.64185],[98.20146,36.63487],[98.24527,36.62974],[98.26964,36.621],[98.3083,36.59333],[98.32689,36.59504],[98.36066,36.58002],[98.37651,36.58433],[98.41467,36.56994],[98.42142,36.55996],[98.45482,36.55946],[98.51036,36.56681],[98.52572,36.56234],[98.56681,36.57384],[98.61367,36.57299],[98.64671,36.57949],[98.66065,36.58733],[98.71691,36.58936],[98.74712,36.60759],[98.76723,36.64108],[98.77402,36.6678],[98.79786,36.68536],[98.82745,36.66861],[98.83462,36.62489],[98.86062,36.59923],[98.86144,36.58577],[98.87987,36.57575],[98.90457,36.53293],[98.90833,36.50951],[98.90382,36.49633],[98.92072,36.48798],[98.97627,36.49841],[99.08425,36.53301],[99.11831,36.55328],[99.17013,36.56515],[99.26203,36.60437],[99.33317,36.62091],[99.35396,36.63279],[99.37277,36.6549],[99.39364,36.65734],[99.42565,36.67141],[99.44532,36.68691],[99.42134,36.74055],[99.42954,36.76035],[99.38589,36.79814],[99.29622,36.8496],[99.2765,36.89354],[99.22259,36.9232],[99.20218,36.92744],[99.19767,36.93718],[99.16104,36.95302]]]},"properties":{"dt_adcode":"632821","dt_name":"乌兰县","ct_adcode":"632800","ct_name":"海西蒙古族藏族自治州","pr_name":"青海省"}},
{"type":"Feature","geometry":{"type":"Polygon","coordinates":[[[96.12769,37.19271],[96.11047,37.19694],[96.0795,37.19346],[96.04272,37.21868],[96.00723,37.22913],[95.98224,37.22766],[95.96595,37.25922],[95.9274,37.29386],[95.90547,37.30584],[95.88286,37.32621],[95.83966,37.31306],[95.81772,37.31192],[95.77433,37.29434],[95.75965,37.27835],[95.72688,37.2687],[95.68155,37.27623],[95.64867,37.25733],[95.61442,37.22459],[95.58056,37.17102],[95.54395,37.16806],[95.47397,37.15571],[95.43647,37.1568],[95.42301,37.15282],[95.38655,37.15976],[95.35169,37.16042],[95.32081,37.16989],[95.30219,37.19193],[95.30027,37.18725],[95.33501,37.01536],[95.33983,37.00396],[95.4188,36.91815],[95.44361,36.89787],[95.4468,36.86677],[95.44194,36.78956],[95.4411,36.7369],[95.46947,36.73398],[95.48225,36.68637],[95.53402,36.44421],[95.53833,36.43726],[95.60792,36.43822],[95.63654,36.44625],[95.70539,36.45649],[95.80284,36.45438],[95.80378,36.42779],[95.78151,36.3763],[95.77289,36.36791],[95.72481,36.33878],[95.71783,36.316],[95.71705,36.27595],[95.69788,36.22268],[95.69829,36.21092],[95.66853,36.13731],[95.65436,36.11657],[95.64643,36.08575],[95.62793,36.08606],[95.60413,36.06504],[95.56308,36.01803],[95.54005,36.0003],[95.57064,35.94641],[95.58078,35.92103],[95.57151,35.90648],[95.61101,35.88395],[95.64456,35.88504],[95.70631,35.87722],[95.70756,35.85779],[95.68424,35.82331],[95.68509,35.79673],[95.67476,35.7838],[95.65505,35.72179],[95.64817,35.64703],[95.6659,35.65478],[95.68906,35.65129],[95.73581,35.65091],[95.7445,35.63432],[95.77229,35.64239],[95.79171,35.64005],[95.88451,35.63684],[95.90027,35.62444],[95.92511,35.62113],[95.94468,35.59156],[95.94833,35.56985],[95.9675,35.55384],[95.97912,35.53368],[95.99271,35.53296],[96.05162,35.55508],[96.06297,35.59654],[96.08565,35.61308],[96.11666,35.62542],[96.13299,35.64781],[96.17918,35.63303],[96.20303,35.63674],[96.22226,35.63025],[96.24161,35.6483],[96.26511,35.64314],[96.29266,35.64886],[96.33801,35.63489],[96.35374,35.65286],[96.42891,35.63451],[96.44105,35.63632],[96.46115,35.62306],[96.48305,35.62247],[96.51894,35.61224],[96.54264,35.61517],[96.56586,35.60322],[96.58157,35.58181],[96.61716,35.58308],[96.63026,35.58892],[96.66271,35.58397],[96.67467,35.59264],[96.70725,35.58557],[96.71212,35.5657],[96.76261,35.5304],[96.78584,35.50716],[96.82526,35.50159],[96.84365,35.5107],[96.85075,35.49771],[96.89432,35.48181],[96.94017,35.49274],[96.94581,35.46729],[96.96323,35.48667],[96.99989,35.47326],[97.01727,35.45303],[97.04503,35.43129],[97.04279,35.40838],[97.05562,35.39132],[97.07619,35.38232],[97.09724,35.35616],[97.12709,35.34312],[97.14559,35.34371],[97.17679,35.33409],[97.2174,35.33506],[97.23994,35.3224],[97.2775,35.31944],[97.29609,35.33877],[97.32066,35.29946],[97.3443,35.29823],[97.35675,35.30641],[97.37434,35.29552],[97.41209,35.30281],[97.4578,35.29321],[97.4932,35.27758],[97.53386,35.26723],[97.56042,35.27215],[97.59074,35.2583],[97.61256,35.26021],[97.61891,35.2742],[97.60881,35.32818],[97.60976,35.35611],[97.61664,35.37742],[97.63789,35.38734],[97.66681,35.37759],[97.66217,35.35492],[97.67088,35.34899],[97.70984,35.34545],[97.75017,35.34922],[97.76678,35.33118],[97.79006,35.32299],[97.81806,35.32649],[97.83826,35.31508],[97.86683,35.31582],[97.89627,35.2964],[97.91725,35.30742],[97.9425,35.28798],[98.00324,35.28895],[98.02089,35.28621],[98.0766,35.29812],[98.0875,35.32434],[98.1286,35.33314],[98.17852,35.32073],[98.18026,35.33834],[98.20321,35.40743],[98.22361,35.43671],[98.21966,35.46566],[98.25265,35.49424],[98.26053,35.5135],[98.30852,35.5032],[98.29595,35.47697],[98.31281,35.46199],[98.33078,35.47362],[98.35627,35.46029],[98.39612,35.46202],[98.43404,35.47382],[98.45507,35.47078],[98.48529,35.4526],[98.52005,35.44927],[98.54702,35.4565],[98.59419,35.46203],[98.61727,35.47497],[98.63257,35.49619],[98.67789,35.51566],[98.71383,35.51708],[98.73804,35.52474],[98.76005,35.53949],[98.7705,35.582],[98.76499,35.59439],[98.79232,35.60408],[98.81646,35.60073],[98.86444,35.56988],[98.91187,35.58128],[98.91046,35.60073],[98.97731,35.58719],[99.00949,35.5839],[99.05688,35.59381],[99.07715,35.58648],[99.10505,35.59316],[99.11743,35.61194],[99.15915,35.62406],[99.16182,35.63478],[99.20451,35.68295],[99.20704,35.72825],[99.19303,35.73784],[99.1846,35.76245],[99.1626,35.79133],[99.13534,35.79683],[99.12029,35.81],[99.12545,35.83172],[99.12352,35.86634],[99.10124,35.88361],[99.11562,35.91164],[99.10593,35.92774],[99.07001,35.96829],[99.08824,36.00003],[99.07633,36.01726],[99.03923,36.04674],[99.00832,36.06277],[99.01478,36.08642],[98.97796,36.09516],[98.96694,36.12968],[98.94034,36.14132],[98.93248,36.15588],[98.98997,36.16845],[98.99257,36.19162],[99.04266,36.23339],[99.04859,36.28829],[99.06482,36.29903],[99.06484,36.3241],[99.03388,36.36589],[98.98811,36.41007],[98.95414,36.42374],[98.94613,36.44446],[98.93409,36.44517],[98.92275,36.46427],[98.92973,36.47561],[98.92072,36.48798],[98.90382,36.49633],[98.90833,36.50951],[98.90457,36.53293],[98.87987,36.57575],[98.86144,36.58577],[98.86062,36.59923],[98.83462,36.62489],[98.82745,36.66861],[98.79786,36.68536],[98.77402,36.6678],[98.76723,36.64108],[98.74712,36.60759],[98.71691,36.58936],[98.66065,36.58733],[98.64671,36.57949],[98.61367,36.57299],[98.56681,36.57384],[98.52572,36.56234],[98.51036,36.56681],[98.45482,36.55946],[98.42142,36.55996],[98.41467,36.56994],[98.37651,36.58433],[98.36066,36.58002],[98.32689,36.59504],[98.3083,36.59333],[98.26964,36.621],[98.24527,36.62974],[98.20146,36.63487],[98.18328,36.64185],[98.16606,36.66316],[98.13532,36.67863],[98.11942,36.6959],[98.07051,36.6978],[98.01411,36.68126],[98.00009,36.67056],[98.00066,36.63314],[98.02229,36.54567],[97.95355,36.49467],[97.81787,36.3748],[97.81842,36.3429],[97.80633,36.33367],[97.78514,36.33077],[97.74241,36.33301],[97.70006,36.32185],[97.63571,36.34216],[97.56362,36.36156],[97.48356,36.37817],[97.39453,36.43698],[97.3175,36.46494],[97.29283,36.44511],[97.2628,36.46216],[97.23096,36.48848],[97.1703,36.51692],[97.04352,36.64694],[97.09896,36.7823],[97.17209,36.95686],[97.06337,36.95222],[97.03619,36.96149],[96.99845,36.96725],[96.95357,36.94132],[96.93235,36.93483],[96.84675,36.93061],[96.79592,36.94846],[96.75665,36.9467],[96.70637,36.92637],[96.66065,36.94044],[96.61361,36.96883],[96.55964,36.99399],[96.50613,37.02852],[96.47455,37.07025],[96.4174,37.0848],[96.38705,37.08301],[96.34962,37.10086],[96.30204,37.10615],[96.27366,37.12295],[96.26022,37.13705],[96.20182,37.17529],[96.17672,37.17801],[96.1388,37.19323],[96.12769,37.19271]]]},"properties":{"dt_adcode":"632822","dt_name":"都兰县","ct_adcode":"632800","ct_name":"海西蒙古族藏族自治州","pr_name":"青海省"}},
{"type":"Feature","geometry":{"type":"Polygon","coordinates":[[[99.16104,36.95302],[99.15404,36.96986],[99.19677,36.96098],[99.22993,36.97658],[99.24779,37.02198],[99.24791,37.03169],[99.27061,37.08888],[99.32047,37.12338],[99.3487,37.12339],[99.35817,37.1347],[99.36705,37.17492],[99.3812,37.16665],[99.40962,37.16926],[99.4325,37.15834],[99.44657,37.15953],[99.45282,37.17401],[99.42924,37.18245],[99.43543,37.21594],[99.42173,37.24175],[99.43939,37.29052],[99.43308,37.31332],[99.41677,37.33002],[99.41546,37.36956],[99.46346,37.39808],[99.47465,37.41137],[99.47695,37.42941],[99.47188,37.45975],[99.46222,37.48216],[99.48216,37.51108],[99.49,37.53085],[99.51234,37.55261],[99.54182,37.56322],[99.54032,37.59646],[99.55838,37.61029],[99.58957,37.61078],[99.63463,37.65379],[99.65513,37.66228],[99.68476,37.6669],[99.696,37.68246],[99.68776,37.71952],[99.65954,37.73136],[99.64827,37.75657],[99.6449,37.78459],[99.66031,37.81174],[99.60532,37.82896],[99.59928,37.83658],[99.55387,37.84494],[99.51107,37.85737],[99.49673,37.83803],[99.47607,37.84557],[99.47256,37.87272],[99.43685,37.89678],[99.41586,37.902],[99.37375,37.92356],[99.39076,37.94672],[99.35747,37.96683],[99.35824,37.97897],[99.3792,38.00655],[99.41017,38.02485],[99.43982,38.01703],[99.49811,38.0323],[99.52265,38.03436],[99.55838,38.02929],[99.61439,38.05311],[99.6363,38.0526],[99.66938,38.06064],[99.66146,38.07799],[99.64606,38.07645],[99.62303,38.0934],[99.57802,38.10948],[99.59355,38.16237],[99.58376,38.2001],[99.55711,38.20838],[99.52941,38.20573],[99.50997,38.22491],[99.49711,38.25036],[99.46763,38.24798],[99.43707,38.25798],[99.40474,38.25724],[99.36248,38.24683],[99.31995,38.26527],[99.28265,38.27421],[99.25575,38.2905],[99.24907,38.30154],[99.25849,38.3151],[99.24619,38.32838],[99.22244,38.32817],[99.2113,38.31592],[99.17145,38.30784],[99.16956,38.29081],[99.14539,38.29023],[99.12156,38.27272],[99.08809,38.26252],[99.0389,38.25656],[99.01131,38.2673],[99.00201,38.2782],[98.94855,38.27112],[98.90718,38.28857],[98.90822,38.30135],[98.93794,38.32471],[98.93574,38.34169],[98.90913,38.35012],[98.90858,38.36341],[98.95446,38.39017],[98.98262,38.3966],[98.96869,38.42247],[98.94734,38.44387],[98.88125,38.47487],[98.82847,38.47795],[98.81572,38.48203],[98.77765,38.47753],[98.73489,38.485],[98.71659,38.50242],[98.71085,38.52059],[98.68242,38.53013],[98.63725,38.52202],[98.59683,38.53123],[98.5619,38.55297],[98.53844,38.57935],[98.50817,38.5859],[98.46813,38.58774],[98.41743,38.59792],[98.36743,38.61518],[98.29507,38.66286],[98.27366,38.66033],[98.26259,38.6451],[98.24591,38.66335],[98.18184,38.66715],[98.15649,38.69553],[98.13591,38.71014],[98.14146,38.72955],[98.13761,38.74699],[98.11048,38.75953],[98.06797,38.81568],[98.05024,38.81874],[98.02714,38.83504],[98.01137,38.85761],[97.97151,38.863],[97.95487,38.87338],[97.90848,38.88427],[97.87545,38.898],[97.82848,38.92965],[97.79276,38.94245],[97.74904,38.94911],[97.72475,38.96068],[97.70095,38.96286],[97.68989,38.97551],[97.6944,38.9883],[97.6863,39.00505],[97.61972,39.03145],[97.58104,39.05198],[97.5364,39.06886],[97.49995,39.07768],[97.47478,39.10546],[97.45805,39.11741],[97.42962,39.12306],[97.40043,39.14595],[97.36448,39.14283],[97.35511,39.1607],[97.34128,39.16759],[97.29989,39.16532],[97.22022,39.19244],[97.1628,39.19414],[97.14042,39.19922],[97.08211,39.19549],[97.05974,39.19685],[97.04685,39.20702],[97.01691,39.2077],[96.96262,39.19788],[96.98319,39.17802],[96.99666,39.15227],[97.011,39.13947],[96.96944,39.09733],[96.96884,39.07865],[96.95739,39.04128],[96.96523,39.01657],[96.94835,38.99198],[96.93871,38.95522],[96.94895,38.93895],[96.94052,38.91845],[96.96583,38.88652],[96.99265,38.8838],[97.0133,38.87855],[97.03323,38.88639],[97.05574,38.88532],[97.1001,38.86821],[97.1164,38.87301],[97.14159,38.86296],[97.17197,38.86566],[97.16367,38.83392],[97.13712,38.81104],[97.13888,38.78608],[97.14754,38.75356],[97.15923,38.74496],[97.16014,38.72805],[97.20068,38.7024],[97.2301,38.69052],[97.26862,38.7053],[97.29085,38.70226],[97.28108,38.67193],[97.29804,38.65296],[97.31782,38.65296],[97.34279,38.64013],[97.33749,38.61701],[97.34913,38.61292],[97.35507,38.57559],[97.32982,38.56123],[97.32353,38.54197],[97.33962,38.52284],[97.37455,38.5126],[97.40678,38.51048],[97.42238,38.49592],[97.39943,38.47435],[97.40562,38.4459],[97.41754,38.43625],[97.4882,38.41316],[97.5235,38.41114],[97.55788,38.40379],[97.58649,38.41015],[97.61988,38.39349],[97.66042,38.38512],[97.67674,38.3654],[97.70913,38.33621],[97.7427,38.3138],[97.75328,38.30139],[97.77491,38.2945],[97.7895,38.26975],[97.78908,38.24864],[97.76156,38.19092],[97.81589,38.11431],[97.79215,38.08676],[97.78537,38.06406],[97.79531,38.04245],[97.78067,38.03177],[97.76415,38.00084],[97.75811,37.96785],[97.77081,37.93215],[97.81271,37.91477],[97.81896,37.89543],[97.84077,37.87762],[97.86695,37.84645],[97.86109,37.83079],[97.87418,37.8096],[97.89218,37.80877],[97.91173,37.77938],[97.9306,37.77948],[97.9418,37.75871],[97.92931,37.73974],[97.93952,37.72977],[97.96509,37.73074],[97.99452,37.7164],[98.00632,37.69843],[98.02205,37.69037],[98.02903,37.67293],[98.06421,37.68787],[98.06718,37.66814],[98.04883,37.65675],[98.03597,37.63545],[98.05332,37.61742],[98.03652,37.60813],[98.03918,37.57332],[98.04715,37.5592],[98.10969,37.54713],[98.11477,37.52662],[98.10634,37.52087],[98.11227,37.47118],[98.09337,37.44638],[98.10934,37.43814],[98.11462,37.4145],[98.14196,37.41124],[98.14388,37.37152],[98.12413,37.35131],[98.10098,37.33537],[98.11761,37.32452],[98.13235,37.30027],[98.11277,37.29845],[98.0909,37.27687],[98.09804,37.24992],[98.13148,37.23144],[98.20071,37.22521],[98.22632,37.27542],[98.25091,37.28435],[98.33107,37.30726],[98.35251,37.30491],[98.40163,37.32753],[98.41494,37.32911],[98.43432,37.29882],[98.43569,37.28725],[98.45332,37.25909],[98.47522,37.27574],[98.53422,37.28732],[98.57972,37.28846],[98.61183,37.27588],[98.66014,37.26222],[98.69686,37.23895],[98.70854,37.24303],[98.73549,37.23196],[98.75043,37.23562],[98.78098,37.22685],[98.80633,37.20094],[98.79394,37.1913],[98.79617,37.16565],[98.82993,37.13108],[98.827,37.10959],[98.84048,37.08334],[98.84499,37.06185],[98.90307,37.07863],[98.90904,37.07505],[98.92996,37.0082],[98.95903,36.98072],[98.97258,36.97978],[98.96789,36.95884],[98.92778,36.94192],[98.9118,36.91586],[98.93375,36.90654],[98.96177,36.91],[98.98095,36.92029],[98.99101,36.94838],[99.00011,36.95619],[99.03121,36.96472],[99.05883,36.96607],[99.0683,36.95841],[99.10514,36.94749],[99.12015,36.95232],[99.13711,36.9451],[99.16104,36.95302]]]},"properties":{"dt_adcode":"632823","dt_name":"天峻县","ct_adcode":"632800","ct_name":"海西蒙古族藏族自治州","pr_name":"青海省"}},
{"type":"Feature","geometry":{"type":"Polygon","coordinates":[[[93.10372,37.76071],[93.11026,37.76209],[93.15169,37.74342],[93.18631,37.72198],[93.21226,37.6965],[93.22562,37.67468],[93.24423,37.66392],[93.28189,37.62786],[93.3939,37.62615],[93.52091,37.62549],[93.63447,37.57782],[93.6496,37.60104],[93.7195,37.58997],[93.75722,37.60807],[93.8123,37.60799],[93.81534,37.62769],[93.86547,37.63039],[93.85775,37.64642],[93.8722,37.66632],[93.91873,37.68605],[93.93412,37.68638],[93.9581,37.67361],[93.99327,37.66139],[94.06483,37.65984],[94.13677,37.66516],[94.17176,37.65982],[94.21546,37.6604],[94.30175,37.64264],[94.31603,37.63715],[94.35379,37.60981],[94.38034,37.58477],[94.42745,37.54962],[94.45284,37.54188],[94.4903,37.51879],[94.53202,37.48719],[94.59625,37.43341],[94.60069,37.41787],[94.66052,37.37769],[94.69433,37.36219],[94.73805,37.35474],[94.74985,37.33198],[94.76985,37.32168],[94.81446,37.32335],[94.86808,37.30461],[94.92224,37.29024],[94.99162,37.27889],[95.00555,37.26799],[95.03532,37.26664],[95.05338,37.27113],[95.10106,37.27356],[95.13217,37.27051],[95.18296,37.25286],[95.21011,37.23194],[95.25528,37.20408],[95.30219,37.19193],[95.32081,37.16989],[95.35169,37.16042],[95.38655,37.15976],[95.42301,37.15282],[95.43647,37.1568],[95.47397,37.15571],[95.54395,37.16806],[95.58056,37.17102],[95.61442,37.22459],[95.64867,37.25733],[95.68155,37.27623],[95.72688,37.2687],[95.75965,37.27835],[95.77433,37.29434],[95.81772,37.31192],[95.83966,37.31306],[95.88286,37.32621],[95.90547,37.30584],[95.9274,37.29386],[95.96595,37.25922],[95.98224,37.22766],[96.00723,37.22913],[96.04272,37.21868],[96.0795,37.19346],[96.11047,37.19694],[96.12769,37.19271],[96.14001,37.2437],[96.1778,37.38764],[96.17679,37.40319],[96.16457,37.41869],[96.17185,37.4366],[96.20582,37.44648],[96.21304,37.46555],[96.19848,37.47978],[96.17093,37.47069],[96.12988,37.4806],[96.0775,37.4994],[96.06039,37.53747],[96.0564,37.55671],[95.99816,37.59337],[95.9116,37.60892],[95.89578,37.60747],[95.85876,37.61791],[95.85549,37.62648],[95.75424,37.65993],[95.71631,37.66305],[95.71935,37.68911],[95.76359,37.71252],[95.75331,37.74004],[95.75443,37.75454],[95.74069,37.7656],[95.7555,37.78144],[95.76642,37.82706],[95.7449,37.84266],[95.73157,37.86763],[95.72434,37.91493],[95.72633,37.97227],[95.75989,37.99248],[95.78782,38.00279],[95.79136,38.04421],[95.81632,38.11017],[95.82526,38.12211],[95.85731,38.13258],[95.86702,38.15359],[95.88387,38.16935],[95.92842,38.19065],[95.93778,38.22378],[95.95388,38.22863],[95.9378,38.23726],[95.93303,38.2578],[95.89569,38.29002],[95.86239,38.28302],[95.84987,38.29887],[95.8369,38.34239],[95.82232,38.35496],[95.80951,38.35133],[95.77505,38.35574],[95.72284,38.37836],[95.70295,38.39991],[95.67337,38.3905],[95.66152,38.36521],[95.63926,38.3659],[95.62324,38.34669],[95.60758,38.33921],[95.58921,38.3442],[95.56788,38.32573],[95.5358,38.31366],[95.51513,38.29458],[95.49983,38.31291],[95.48636,38.31409],[95.45434,38.2915],[95.44038,38.31056],[95.42306,38.31114],[95.40668,38.29994],[95.38775,38.30083],[95.3603,38.31298],[95.33431,38.30776],[95.32079,38.31972],[95.26716,38.29719],[95.24853,38.31736],[95.22577,38.33064],[95.20792,38.32799],[95.18709,38.36383],[95.16657,38.38778],[95.13692,38.3941],[95.12022,38.417],[95.0713,38.4021],[95.04406,38.4184],[95.03022,38.41241],[95.01632,38.42592],[94.98422,38.42376],[94.97241,38.43016],[94.90124,38.42046],[94.88294,38.41483],[94.87788,38.40251],[94.85567,38.39268],[94.81156,38.38567],[94.74924,38.38481],[94.72819,38.38939],[94.67884,38.38707],[94.63583,38.38063],[94.61097,38.3716],[94.58214,38.36918],[94.55099,38.35019],[94.52894,38.36073],[94.52604,38.37042],[94.52608,38.42592],[94.51001,38.44498],[94.42665,38.63404],[94.36872,38.76235],[94.33348,38.75529],[94.28007,38.75976],[94.08365,38.73782],[94.09066,38.71563],[94.07693,38.69207],[94.09066,38.66741],[94.09616,38.63525],[94.10578,38.61272],[94.08517,38.57195],[94.03307,38.54627],[93.97968,38.52709],[93.95503,38.4831],[93.95777,38.4702],[94.11816,38.44087],[94.187,38.40655],[94.21592,38.35923],[94.24892,38.33233],[94.2654,38.30323],[94.28873,38.28812],[94.2654,38.27197],[94.23105,38.26226],[94.19527,38.22662],[94.17737,38.21688],[94.15671,38.18445],[94.09206,38.11527],[94.05775,38.07422],[94.05775,38.05692],[94.09344,37.98547],[94.07833,37.96815],[94.07696,37.95299],[94.05775,37.93785],[94.03583,37.93789],[93.98244,37.97704],[93.94271,38.01394],[93.90841,38.03129],[93.8589,38.02043],[93.83274,38.00415],[93.80382,38.01276],[93.7708,37.99865],[93.72721,37.98996],[93.68557,37.96604],[93.6583,37.94456],[93.64344,37.91016],[93.61768,37.89826],[93.49469,37.90439],[93.44509,37.90427],[93.38738,37.91074],[93.28187,37.91523],[93.23384,37.91308],[93.19535,37.92062],[93.14032,37.92377],[93.10459,37.92157],[93.12382,37.88257],[93.14445,37.86633],[93.1417,37.84355],[93.12245,37.83159],[93.05386,37.83379],[93.02512,37.8382],[93.00598,37.82958],[92.99914,37.81658],[93.05386,37.7969],[93.10372,37.76071]]]},"properties":{"dt_adcode":"632825","dt_name":"海西蒙古族藏族自治州直辖","ct_adcode":"632800","ct_name":"海西蒙古族藏族自治州","pr_name":"青海省"}}
]}