{"type":"FeatureCollection","features":[{"type":"Feature","id":1,"geometry":{"type":"Point","coordinates":[98.0286111111111,38.7025]},"properties":{"id":1,"unit":"天峻县生态环境局","area":"祁连山国家公园天峻片区","mode":"无人机+机巢模式","quantity":1,"scope":"东经94°50′12″-102°59′13″，北纬36°45′16″-39°47′14″","function":"挂载红外热成像视频检测设备","network":[],"uavTypes":["常规无人机"]}},{"type":"Feature","id":2,"geometry":{"type":"Point","coordinates":[99.01861111111111,37.30166666666666]},"properties":{"id":2,"unit":"天峻县生态环境局","area":"布哈河国家湿地公园","mode":"无人机+机巢模式","quantity":1,"scope":"东经98°42′44.69″-99°24′35″，北纬37°10′14.914″-37°25′26.58″","function":"挂载红外热成像视频检测设备","network":[],"uavTypes":["常规无人机"]}},{"type":"Feature","id":3,"geometry":{"type":"Point","coordinates":[99.16166666666668,38.159444444444446]},"properties":{"id":3,"unit":"天峻县生态环境局","area":"原木里矿区巡护","mode":"无人机+机巢模式","quantity":1,"scope":"东经 98°30′-99°00′、北纬 38°30′-39°00′","function":"挂载红外热成像视频检测设备","network":[],"uavTypes":["常规无人机"]}},{"type":"Feature","id":4,"geometry":{"type":"Point","coordinates":[99.1975,37.154444444444444]},"properties":{"id":4,"unit":"天峻县生态环境局","area":"青海启贵建设集团公司","mode":"无人机+机巢模式","quantity":1,"scope":"东经 99°11'51\"，北纬 37°9'16\"","function":"挂载废气检测设备","network":[],"uavTypes":["大气监测无人机"]}},{"type":"Feature","id":5,"geometry":{"type":"Point","coordinates":[99.02474722222222,37.28874166666667]},"properties":{"id":5,"unit":"天峻县生态环境局","area":"青海湖源牧业开发有限公司","mode":"无人机+机巢模式","quantity":1,"scope":"东经99°01'29.09\"，北纬37°17'19.47\"","function":"","network":[],"uavTypes":["常规无人机"]}},{"type":"Feature","id":6,"geometry":{"type":"Point","coordinates":[99.02474722222222,37.28874166666667]},"properties":{"id":6,"unit":"天峻县生态环境局","area":"天峻县柯曲肉食品有限公司","mode":"无人机+机巢模式","quantity":1,"scope":"东经99°01'29.09\"，北纬37°17'19.47\"","function":"","network":[],"uavTypes":["常规无人机"]}},{"type":"Feature","id":7,"geometry":{"type":"Point","coordinates":[95.87577417,37.34122798]},"properties":{"id":7,"unit":"大柴旦生态环境局","area":"青海博奇生态环境科技有限公司企业大门口门卫室顶","mode":"无人机+机巢模式","quantity":1,"scope":"","function":"有机载超清可见光及热红外成像系统、机载多气体监测器","network":[],"uavTypes":["大气监测无人机"]}},{"type":"Feature","id":8,"geometry":{"type":"Point","coordinates":[95.928265,37.39228826]},"properties":{"id":8,"unit":"大柴旦生态环境局","area":"大柴旦吉利化工有限公司企业大门口推拉移门围墙","mode":"无人机+机巢模式","quantity":1,"scope":"","function":"有机载超清可见光及热红外成像系统、机载多气体监测器","network":[],"uavTypes":["大气监测无人机"]}},{"type":"Feature","id":9,"geometry":{"type":"Point","coordinates":[95.81688359,37.39013698]},"properties":{"id":9,"unit":"大柴旦生态环境局","area":"大柴旦饮马峡危废品运输车辆停车场门卫室顶","mode":"无人机+机巢模式","quantity":1,"scope":"","function":"有机载超清可见光及热红外成像系统、机载多气体监测器","network":[],"uavTypes":["大气监测无人机"]}},{"type":"Feature","id":10,"geometry":{"type":"Point","coordinates":[95.56300179,37.30536857]},"properties":{"id":10,"unit":"大柴旦生态环境局","area":"原创新科技企业车辆过磅检测房屋顶","mode":"无人机+机巢模式","quantity":1,"scope":"","function":"有机载超清可见光及热红外成像系统、机载多气体监测器","network":[],"uavTypes":["大气监测无人机"]}},{"type":"Feature","id":11,"geometry":{"type":"Point","coordinates":[95.17266796,37.81799756]},"properties":{"id":11,"unit":"大柴旦生态环境局","area":"兴华锂业企业大门口门卫室顶","mode":"无人机+机巢模式","quantity":1,"scope":"","function":"有机载超清可见光及热红外成像系统、机载多气体监测器","network":[],"uavTypes":["大气监测无人机"]}},{"type":"Feature","id":12,"geometry":{"type":"Point","coordinates":[93.52978949,37.69645507]},"properties":{"id":12,"unit":"大柴旦生态环境局","area":"恒信融锂业企业大门口门卫室顶","mode":"无人机+机巢模式","quantity":1,"scope":"","function":"有机载超清可见光及热红外成像系统、机载多气体监测器","network":[],"uavTypes":["大气监测无人机"]}},{"type":"Feature","id":13,"geometry":{"type":"Point","coordinates":[94.28924891,38.42633255]},"properties":{"id":13,"unit":"大柴旦生态环境局","area":"团鱼山露天煤矿行政主楼西北侧一层平房顶","mode":"无人机+机巢模式","quantity":1,"scope":"","function":"有机载超清可见光及热红外成像系统、机载多气体监测器","network":[],"uavTypes":["大气监测无人机"]}},{"type":"Feature","id":14,"geometry":{"type":"Point","coordinates":[94.36068418,38.38998205]},"properties":{"id":14,"unit":"大柴旦生态环境局","area":"马海火车站行政区平房顶","mode":"无人机+机巢模式","quantity":1,"scope":"","function":"有机载超清可见光及热红外成像系统、机载多气体监测器","network":[],"uavTypes":["大气监测无人机"]}},{"type":"Feature","id":15,"geometry":{"type":"Point","coordinates":[94.88798098,38.00985775]},"properties":{"id":15,"unit":"大柴旦生态环境局","area":"鱼卡第一煤矿行政区食堂顶部","mode":"无人机+机巢模式","quantity":1,"scope":"","function":"有机载超清可见光及热红外成像系统、机载多气体监测器","network":[],"uavTypes":["大气监测无人机"]}},{"type":"Feature","id":16,"geometry":{"type":"Point","coordinates":[94.96387543,38.07371785]},"properties":{"id":16,"unit":"大柴旦生态环境局","area":"鱼卡火车站行政区平房顶","mode":"无人机+机巢模式","quantity":1,"scope":"","function":"有机载超清可见光及热红外成像系统、机载多气体监测器","network":[],"uavTypes":["大气监测无人机"]}},{"type":"Feature","id":17,"geometry":{"type":"Point","coordinates":[95.3633301,37.85273948]},"properties":{"id":17,"unit":"大柴旦生态环境局","area":"大柴旦环保局所在大楼楼顶","mode":"无人机+机巢模式","quantity":1,"scope":"","function":"有机载超清可见光及热红外成像系统、机载多气体监测器","network":[],"uavTypes":["大气监测无人机"]}},{"type":"Feature","id":18,"geometry":{"type":"Point","coordinates":[98.33,36.75]},"properties":{"id":18,"unit":"乌兰县生态环境局","area":"哈里哈图国家森林公园","mode":"无人机+机巢模式","quantity":1,"scope":"","function":"1.违法违规行为排查：未批先建，违规占地；破坏生态资源、违规生产经营以及非法倾倒垃圾、危险废物的行为。\n2.生态破坏现状与证据固定，生态受损情况取证：拍摄植被退化、水体污染、湿地萎缩的现场画面，记录受损范围与程度，作为执法处罚依据。违规行为痕迹追踪：通过无人机航拍轨迹，还原违规行为的作业范围，结合机巢定期巡航数据，固定“多次违规”“持续破坏”的证据链。\n3.整改落实情况核查：对已责令整改的点位进行定期复查，确认是否按要求整改，是否存在“虚假整改”“反弹回潮”现象。\n4.环境安全隐患排查：识别可能引发次生污染的风险点，如废弃化工设施（渗漏风险）、违规储存的危险化学品，提前预警并联动处置。","network":[],"uavTypes":["常规无人机"]}},{"type":"Feature","id":19,"geometry":{"type":"Point","coordinates":[98.3,36.8]},"properties":{"id":19,"unit":"乌兰县生态环境局","area":"金子海省级自然保护区","mode":"无人机+机巢模式","quantity":1,"scope":"","function":"","network":[],"uavTypes":["常规无人机"]}},{"type":"Feature","id":20,"geometry":{"type":"Point","coordinates":[98.17,36.67]},"properties":{"id":20,"unit":"乌兰县生态环境局","area":"乌兰梭梭林自然保护区（省级自然保护区）","mode":"无人机+机巢模式","quantity":1,"scope":"","function":"","network":[],"uavTypes":["常规无人机"]}},{"type":"Feature","id":21,"geometry":{"type":"Point","coordinates":[98.22,36.48]},"properties":{"id":21,"unit":"乌兰县生态环境局","area":"都兰湖湿地公园","mode":"无人机+机巢模式","quantity":1,"scope":"","function":"","network":[],"uavTypes":["常规无人机"]}},{"type":"Feature","id":22,"geometry":{"type":"Point","coordinates":[104.98,37.68]},"properties":{"id":22,"unit":"乌兰县生态环境局","area":"庆华工业园区","mode":"无人机+机巢模式","quantity":1,"scope":"","function":"1.环境质量监测：利用搭载气体监测模块的无人机，监测园区内及周边的大气污染物浓度，如PM2.5、PM10、SO₂、NO₂、VOCs等。同时，可通过无人机搭载的高清摄像头，对园区内的水体进行监测，查看是否有水体污染现象，如水体颜色异常、有漂浮物等。\n2.安全生产监测：搭载红外测温仪等设备，对园区内的化工装置、储罐、管道等进行温度监测，及时发现设备过热等潜在安全隐患。通过高清摄像头，监测园区内的安全设施是否完好。\n3.违规行为监测：监测园区内是否存在未经审批的新增建设项目，是否有企业违规排放废气、废水、废渣等行为。同时，对园区内的人员和车辆进行监测。","network":[],"uavTypes":["大气监测无人机"]}},{"type":"Feature","id":23,"geometry":{"type":"Point","coordinates":[98.25,36.98]},"properties":{"id":23,"unit":"乌兰县生态环境局","area":"柯柯镇全域","mode":"无人机+机巢模式","quantity":1,"scope":"","function":"1.违法违规行为排查：未批先建，违规占地；破坏生态资源、麦秆焚烧、违规生产经营以及非法倾倒垃圾、危险废物的行为。 \n2.环境质量监测：利用搭载气体监测模块的无人机，监测全域内及周边的大气污染物浓度，如PM2.5、PM10、SO₂、NO₂、VOCs等。","network":[],"uavTypes":["大气监测无人机"]}},{"type":"Feature","id":24,"geometry":{"type":"Point","coordinates":[98.08,36.97]},"properties":{"id":24,"unit":"乌兰县生态环境局","area":"茶卡镇全域","mode":"无人机+机巢模式","quantity":1,"scope":"","function":"","network":[],"uavTypes":["大气监测无人机"]}},{"type":"Feature","id":25,"geometry":{"type":"Point","coordinates":[98.08,36.97]},"properties":{"id":25,"unit":"乌兰县生态环境局","area":"希里沟镇全域","mode":"无人机+机巢模式","quantity":1,"scope":"","function":"","network":[],"uavTypes":["大气监测无人机"]}},{"type":"Feature","id":26,"geometry":{"type":"Point","coordinates":[98.08,36.97]},"properties":{"id":26,"unit":"乌兰县生态环境局","area":"铜普镇全域","mode":"无人机+机巢模式","quantity":1,"scope":"","function":"","network":[],"uavTypes":["大气监测无人机"]}},{"type":"Feature","id":27,"geometry":{"type":"Point","coordinates":[90.86115,38.24825]},"properties":{"id":27,"unit":"茫崖市生态环境局","area":"茫崖市市区及周边","mode":"无人机+机巢模式","quantity":1,"scope":"涵盖区域为：茫崖市市区及市区周边所有可能产生污染的企业（盐湖企业、商砼站、建筑工地、砖厂等企业日常巡查）","function":"企业大气污染防治措施落实情况核查、市区内垃圾焚烧排查、黑烟车辆排查等。","network":[],"uavTypes":["常规无人机"]}},{"type":"Feature","id":28,"geometry":{"type":"Point","coordinates":[93.43285,38.86064]},"properties":{"id":28,"unit":"茫崖市生态环境局","area":"黑独山景区全范围","mode":"无人机+机巢模式","quantity":1,"scope":"涵盖区域为：黑独山景区","function":"日常巡查监管，污水偷排、生活垃圾、违规开发建设等","network":[],"uavTypes":["常规无人机"]}},{"type":"Feature","id":29,"geometry":{"type":"Point","coordinates":[93.89738,38.60664]},"properties":{"id":29,"unit":"茫崖市生态环境局","area":"赛什腾山保护区全范围","mode":"无人机+机巢模式","quantity":1,"scope":"涵盖区域为：赛什腾山","function":"赛什腾山保护区，违规开采开发巡查、暗夜星空保护区灯光污染巡查。","network":[],"uavTypes":["常规无人机"]}},{"type":"Feature","id":30,"geometry":{"type":"Point","coordinates":[92.91642,38.0439]},"properties":{"id":30,"unit":"茫崖市生态环境局","area":"五矿盐湖一里坪矿区","mode":"无人机+机巢模式","quantity":1,"scope":"涵盖区域为：五矿盐湖及周边企业","function":"日常巡查监管，污水偷排、违规倾倒固废、违规开发建设等","network":[],"uavTypes":["常规无人机"]}},{"type":"Feature","id":31,"geometry":{"type":"Point","coordinates":[94.11548,38.19224]},"properties":{"id":31,"unit":"茫崖市生态环境局","area":"锦泰钾肥马海矿区","mode":"无人机+机巢模式","quantity":1,"scope":"涵盖区域为：锦泰钾肥及周边企业","function":"日常巡查监管，污水偷排、违规倾倒固废、违规开发建设等","network":[],"uavTypes":["常规无人机"]}},{"type":"Feature","id":32,"geometry":{"type":"Point","coordinates":[94.25148,38.33646]},"properties":{"id":32,"unit":"茫崖市生态环境局","area":"中航钾业资源开发有限公司马海矿区","mode":"无人机+机巢模式","quantity":1,"scope":"涵盖区域为：中航及周边企业","function":"日常巡查监管，污水偷排、违规倾倒固废、违规开发建设等","network":[],"uavTypes":["常规无人机"]}},{"type":"Feature","id":33,"geometry":{"type":"Point","coordinates":[93.33469,38.73328]},"properties":{"id":33,"unit":"茫崖市生态环境局","area":"冷湖镇政府冷湖镇","mode":"无人机+机巢模式","quantity":1,"scope":"涵盖区域为：冷湖镇镇区及周边","function":"日常巡查监管，污水偷排、违规倾倒固废、违规开发建设等","network":[],"uavTypes":["常规无人机"]}},{"type":"Feature","id":34,"geometry":{"type":"Point","coordinates":[93.03144,38.56257]},"properties":{"id":34,"unit":"茫崖市生态环境局","area":"恒域丰盐化公司","mode":"无人机+机巢模式","quantity":1,"scope":"涵盖区域为：恒域丰及周边企业","function":"日常巡查监管，污水偷排、违规倾倒固废、违规开发建设等","network":[],"uavTypes":["常规无人机"]}},{"type":"Feature","id":35,"geometry":{"type":"Point","coordinates":[91.3918,38.31513]},"properties":{"id":35,"unit":"茫崖市生态环境局","area":"大沃钾肥大浪滩","mode":"无人机+机巢模式","quantity":1,"scope":"涵盖区域为：大沃钾肥","function":"日常巡查监管，污水偷排、违规倾倒固废、违规开发建设等","network":[],"uavTypes":["常规无人机"]}},{"type":"Feature","id":36,"geometry":{"type":"Point","coordinates":[91.40066,38.52547]},"properties":{"id":36,"unit":"茫崖市生态环境局","area":"中农（青海）钾盐大浪滩","mode":"无人机+机巢模式","quantity":1,"scope":"涵盖区域为：中农钾盐及农泰钾业","function":"日常巡查监管，污水偷排、违规倾倒固废、违规开发建设等","network":[],"uavTypes":["常规无人机"]}},{"type":"Feature","id":37,"geometry":{"type":"Point","coordinates":[90.7995,38.00024]},"properties":{"id":37,"unit":"茫崖市生态环境局","area":"切克里克水源地","mode":"无人机+机巢模式","quantity":1,"scope":"涵盖区域为：水源地及周边","function":"日常巡查监管，污水偷排、违规倾倒固废、违规开发建设等","network":[],"uavTypes":["常规无人机"]}},{"type":"Feature","id":38,"geometry":{"type":"Point","coordinates":[90.28531,38.27908]},"properties":{"id":38,"unit":"茫崖市生态环境局","area":"茫崖镇水源地","mode":"无人机+机巢模式","quantity":1,"scope":"涵盖区域为：水源地及周边","function":"日常巡查监管，污水偷排、违规倾倒固废、违规开发建设等","network":[],"uavTypes":["常规无人机"]}},{"type":"Feature","id":39,"geometry":{"type":"Point","coordinates":[93.73174,38.88335]},"properties":{"id":39,"unit":"茫崖市生态环境局","area":"冷湖镇水源地","mode":"无人机+机巢模式","quantity":1,"scope":"涵盖区域为：水源地及周边","function":"日常巡查监管，污水偷排、违规倾倒固废、违规开发建设等","network":[],"uavTypes":["常规无人机"]}},{"type":"Feature","id":40,"geometry":{"type":"Point","coordinates":[90.17197,38.3556]},"properties":{"id":40,"unit":"茫崖市生态环境局","area":"创安石棉矿区","mode":"无人机+机巢模式","quantity":1,"scope":"涵盖区域为：石棉矿区","function":"日常巡查监管，污水偷排、违规倾倒固废、违规开发建设等","network":[],"uavTypes":["常规无人机"]}},{"type":"Feature","id":41,"geometry":{"type":"Point","coordinates":[90.96751,38.07418]},"properties":{"id":41,"unit":"茫崖市生态环境局","area":"晶鑫钾肥尕斯盐矿区","mode":"无人机+机巢模式","quantity":1,"scope":"涵盖区域为：晶鑫钾肥及周边企业","function":"日常巡查监管，污水偷排、违规倾倒固废、违规开发建设等","network":[],"uavTypes":["常规无人机"]}},{"type":"Feature","id":42,"geometry":{"type":"Point","coordinates":[90.91531,38.18672]},"properties":{"id":42,"unit":"茫崖市生态环境局","area":"尕斯运维中心青海油田采油一厂","mode":"无人机+机巢模式","quantity":1,"scope":"涵盖区域为：危废重点监管区域","function":"日常巡查监管，污水偷排、非法填埋危废","network":[],"uavTypes":["常规无人机"]}},{"type":"Feature","id":43,"geometry":{"type":"Point","coordinates":[91.21446,37.90428]},"properties":{"id":43,"unit":"茫崖市生态环境局","area":"乌南联合站青海油田采油二厂","mode":"无人机+机巢模式","quantity":1,"scope":"涵盖区域为：危废重点监管区域","function":"日常巡查监管，污水偷排、非法填埋危废","network":[],"uavTypes":["常规无人机"]}},{"type":"Feature","id":44,"geometry":{"type":"Point","coordinates":[90.8987,38.29207]},"properties":{"id":44,"unit":"茫崖市生态环境局","area":"N7-13油泥砂暂存点青海油田采油三厂","mode":"无人机+机巢模式","quantity":1,"scope":"涵盖区域为：危废重点监管区域","function":"日常巡查监管，污水偷排、非法填埋危废","network":[],"uavTypes":["常规无人机"]}},{"type":"Feature","id":45,"geometry":{"type":"Point","coordinates":[91.45363,38.37134]},"properties":{"id":45,"unit":"茫崖市生态环境局","area":"南翼山固废暂存点青海油田采油四厂","mode":"无人机+机巢模式","quantity":1,"scope":"涵盖区域为：危废重点监管区域","function":"日常巡查监管，污水偷排、非法填埋危废","network":[],"uavTypes":["常规无人机"]}},{"type":"Feature","id":46,"geometry":{"type":"Point","coordinates":[93.29598,38.79496]},"properties":{"id":46,"unit":"茫崖市生态环境局","area":"冷湖危废暂存点青海油田采气二厂冷湖片区","mode":"无人机+机巢模式","quantity":1,"scope":"涵盖区域为：危废重点监管区域","function":"日常巡查监管，污水偷排、非法填埋危废","network":[],"uavTypes":["常规无人机"]}},{"type":"Feature","id":47,"geometry":{"type":"Point","coordinates":[95.31,36.8]},"properties":{"id":47,"unit":"格尔木市","area":"经济开发区（察尔汗重大产业基地）","mode":"无人机+机巢模式","quantity":1,"scope":"重点污染企业，金属冶炼和化工企业","function":"视频监控、PM10、PM2.5、臭氧、氮氧化物、二氧化硫、气象五参数、氯化氢、硫化氢、非甲烷总烃","network":[],"uavTypes":[]}},{"type":"Feature","id":48,"geometry":{"type":"Point","coordinates":[95.31,36.78]},"properties":{"id":48,"unit":"格尔木市","area":"经济开发区（昆仑重大产业基地）","mode":"无人机+机巢模式","quantity":1,"scope":"重点污染企业，金属冶炼和化工企业","function":"视频监控、PM10、PM2.5、臭氧、氮氧化物、二氧化硫、气象五参数、氯化氢、硫化氢、非甲烷总烃","network":[],"uavTypes":[]}},{"type":"Feature","id":49,"geometry":{"type":"Point","coordinates":[94.16,37.37]},"properties":{"id":49,"unit":"格尔木市","area":"东西台","mode":"无人机+机巢模式","quantity":1,"scope":"重点污染企业","function":"有机载超清可见光及热红外成像系统、机载多气体监测器","network":[],"uavTypes":[]}},{"type":"Feature","id":50,"geometry":{"type":"Point","coordinates":[95.18,36.42]},"properties":{"id":50,"unit":"格尔木市","area":"格镁大道","mode":"无人机+机巢模式","quantity":1,"scope":"格镁大道","function":"有机载超清可见光及热红外成像系统、机载多气体监测器","network":[],"uavTypes":[]}},{"type":"Feature","id":51,"geometry":{"type":"Point","coordinates":[92.91,36.82]},"properties":{"id":51,"unit":"格尔木市","area":"青海金鹰矿业有限责任公司","mode":"无人机+机巢模式","quantity":1,"scope":"重点污染企业","function":"有机载超清可见光及热红外成像系统、机载多气体监测器","network":[],"uavTypes":[]}},{"type":"Feature","id":52,"geometry":{"type":"Point","coordinates":[92.92,36.79]},"properties":{"id":52,"unit":"格尔木市","area":"青海铭鑫格尔木矿业有限责任公司","mode":"无人机+机巢模式","quantity":1,"scope":"重点污染企业","function":"有机载超清可见光及热红外成像系统、机载多气体监测器","network":[],"uavTypes":[]}},{"type":"Feature","id":53,"geometry":{"type":"Point","coordinates":[93.57,36.73]},"properties":{"id":53,"unit":"格尔木市","area":"青海昆仑伟业实业投资有限公司","mode":"无人机+机巢模式","quantity":1,"scope":"重点污染企业","function":"有机载超清可见光及热红外成像系统、机载多气体监测器","network":[],"uavTypes":[]}},{"type":"Feature","id":54,"geometry":{"type":"Point","coordinates":[93.18,36.62]},"properties":{"id":54,"unit":"格尔木市","area":"青海鸿丰伟业矿产投资有限公司","mode":"无人机+机巢模式","quantity":1,"scope":"重点污染企业","function":"有机载超清可见光及热红外成像系统、机载多气体监测器","network":[],"uavTypes":[]}},{"type":"Feature","id":55,"geometry":{"type":"Point","coordinates":[92.4,36.48]},"properties":{"id":55,"unit":"格尔木市","area":"青海金川矿业有限责任公司","mode":"无人机+机巢模式","quantity":1,"scope":"重点污染企业","function":"有机载超清可见光及热红外成像系统、机载多气体监测器","network":[],"uavTypes":[]}},{"type":"Feature","id":56,"geometry":{"type":"Point","coordinates":[94.77,35.89]},"properties":{"id":56,"unit":"格尔木市","area":"格尔木鹏润矿业有限责任公司","mode":"无人机+机巢模式","quantity":1,"scope":"重点污染企业","function":"有机载超清可见光及热红外成像系统、机载多气体监测器","network":[],"uavTypes":[]}},{"type":"Feature","id":57,"geometry":{"type":"Point","coordinates":[92.27,37.21]},"properties":{"id":57,"unit":"格尔木市","area":"格尔木庆华矿业有限责任公司","mode":"无人机+机巢模式","quantity":1,"scope":"重点污染企业","function":"有机载超清可见光及热红外成像系统、机载多气体监测器","network":[],"uavTypes":[]}},{"type":"Feature","id":58,"geometry":{"type":"Point","coordinates":[92.08,36.96]},"properties":{"id":58,"unit":"格尔木市","area":"青海鸿鑫矿业有限责任公司","mode":"无人机+机巢模式","quantity":1,"scope":"重点污染企业","function":"有机载超清可见光及热红外成像系统、机载多气体监测器","network":[],"uavTypes":[]}},{"type":"Feature","id":59,"geometry":{"type":"Point","coordinates":[92.14,36.95]},"properties":{"id":59,"unit":"格尔木市","area":"青海长河矿业有限责任公司","mode":"无人机+机巢模式","quantity":1,"scope":"重点污染企业","function":"有机载超清可见光及热红外成像系统、机载多气体监测器","network":[],"uavTypes":[]}},{"type":"Feature","id":60,"geometry":{"type":"Point","coordinates":[91.98,37]},"properties":{"id":60,"unit":"格尔木市","area":"青海融金矿业有限责任公司","mode":"无人机+机巢模式","quantity":1,"scope":"重点污染企业","function":"有机载超清可见光及热红外成像系统、机载多气体监测器","network":[],"uavTypes":[]}},{"type":"Feature","id":61,"geometry":{"type":"Point","coordinates":[91.83,36.92]},"properties":{"id":61,"unit":"格尔木市","area":"格尔木垚鑫矿业有限责任公司","mode":"无人机+机巢模式","quantity":1,"scope":"重点污染企业","function":"有机载超清可见光及热红外成像系统、机载多气体监测器","network":[],"uavTypes":[]}},{"type":"Feature","id":62,"geometry":{"type":"Point","coordinates":[91.07,36.8]},"properties":{"id":62,"unit":"格尔木市","area":"格尔木胜华矿业有限责任公司","mode":"无人机+机巢模式","quantity":1,"scope":"重点污染企业","function":"有机载超清可见光及热红外成像系统、机载多气体监测器","network":[],"uavTypes":[]}},{"type":"Feature","id":63,"geometry":{"type":"Point","coordinates":[95.07,36.34]},"properties":{"id":63,"unit":"格尔木市","area":"东出口（东郊煤场）","mode":"无人机+机巢模式","quantity":1,"scope":"东郊煤场","function":"有机载超清可见光及热红外成像系统、机载多气体监测器","network":[],"uavTypes":[]}},{"type":"Feature","id":64,"geometry":{"type":"Point","coordinates":[92.44,34.21]},"properties":{"id":64,"unit":"格尔木市","area":"唐古拉山镇","mode":"无人机+机巢模式","quantity":1,"scope":"沱沱河","function":"有机载超清可见光及热红外成像系统、机载多气体监测器","network":[],"uavTypes":[]}}]}
