{"type":"FeatureCollection","name":"海西州村庄地名","source":{"dataset":"OpenStreetMap","relation":2707989,"license":"ODbL 1.0","attribution":"© OpenStreetMap contributors"},"features":[{"type":"Feature","id":"osm-node-3299310871","geometry":{"type":"Point","coordinates":[98.4603392,37.0651647]},"properties":{"name":"阿汗达勒","level":"village","source":"OpenStreetMap","osmId":3299310871}},{"type":"Feature","id":"osm-node-13602509950","geometry":{"type":"Point","coordinates":[94.8168667,36.4383537]},"properties":{"name":"阿拉尔村","level":"village","source":"OpenStreetMap","osmId":13602509950}},{"type":"Feature","id":"osm-node-4058604507","geometry":{"type":"Point","coordinates":[97.9113326,35.9546774]},"properties":{"name":"艾力斯台","level":"village","source":"OpenStreetMap","osmId":4058604507}},{"type":"Feature","id":"osm-node-10158102197","geometry":{"type":"Point","coordinates":[93.6715172,36.7914183]},"properties":{"name":"安康村","level":"village","source":"OpenStreetMap","osmId":10158102197}},{"type":"Feature","id":"osm-node-13460327591","geometry":{"type":"Point","coordinates":[93.1451313,36.9548444]},"properties":{"name":"巴乐格图","level":"hamlet","source":"OpenStreetMap","osmId":13460327591}},{"type":"Feature","id":"osm-node-3054832039","geometry":{"type":"Point","coordinates":[99.037208,36.845023]},"properties":{"name":"巴音","level":"village","source":"OpenStreetMap","osmId":3054832039}},{"type":"Feature","id":"osm-node-13602509934","geometry":{"type":"Point","coordinates":[95.0212434,36.4018446]},"properties":{"name":"宝库村","level":"village","source":"OpenStreetMap","osmId":13602509934}},{"type":"Feature","id":"osm-node-10252528533","geometry":{"type":"Point","coordinates":[97.3806921,36.363335]},"properties":{"name":"布拉村","level":"hamlet","source":"OpenStreetMap","osmId":10252528533}},{"type":"Feature","id":"osm-node-9865351499","geometry":{"type":"Point","coordinates":[98.1322806,36.6740531]},"properties":{"name":"查查村","level":"village","source":"OpenStreetMap","osmId":9865351499}},{"type":"Feature","id":"osm-node-9903808902","geometry":{"type":"Point","coordinates":[95.7653419,36.4438512]},"properties":{"name":"查那村","level":"village","source":"OpenStreetMap","osmId":9903808902}},{"type":"Feature","id":"osm-node-10252528517","geometry":{"type":"Point","coordinates":[98.5534576,36.999388]},"properties":{"name":"茶汗诺村","level":"hamlet","source":"OpenStreetMap","osmId":10252528517}},{"type":"Feature","id":"osm-node-13460327593","geometry":{"type":"Point","coordinates":[93.1430987,36.9676773]},"properties":{"name":"察汗乌苏","level":"hamlet","source":"OpenStreetMap","osmId":13460327593}},{"type":"Feature","id":"osm-node-13460327590","geometry":{"type":"Point","coordinates":[93.1580774,36.8951267]},"properties":{"name":"柴开","level":"hamlet","source":"OpenStreetMap","osmId":13460327590}},{"type":"Feature","id":"osm-node-13602509939","geometry":{"type":"Point","coordinates":[94.899024,36.4536845]},"properties":{"name":"城北村","level":"village","source":"OpenStreetMap","osmId":13602509939}},{"type":"Feature","id":"osm-node-5580205824","geometry":{"type":"Point","coordinates":[92.3981094,34.164659]},"properties":{"name":"措里玛村","level":"village","source":"OpenStreetMap","osmId":5580205824}},{"type":"Feature","id":"osm-node-4058604509","geometry":{"type":"Point","coordinates":[98.0042662,35.9100822]},"properties":{"name":"达日德木","level":"village","source":"OpenStreetMap","osmId":4058604509}},{"type":"Feature","id":"osm-node-14028587686","geometry":{"type":"Point","coordinates":[90.8160509,38.016247]},"properties":{"name":"代尔森村","level":"village","source":"OpenStreetMap","osmId":14028587686}},{"type":"Feature","id":"osm-node-4017933814","geometry":{"type":"Point","coordinates":[95.7679546,36.4516572]},"properties":{"name":"东村","level":"hamlet","source":"OpenStreetMap","osmId":4017933814}},{"type":"Feature","id":"osm-node-10252528530","geometry":{"type":"Point","coordinates":[97.8587265,36.0911556]},"properties":{"name":"东山村","level":"hamlet","source":"OpenStreetMap","osmId":10252528530}},{"type":"Feature","id":"osm-node-3320726821","geometry":{"type":"Point","coordinates":[98.1121202,36.2911405]},"properties":{"name":"东山根","level":"village","source":"OpenStreetMap","osmId":3320726821}},{"type":"Feature","id":"osm-node-13366599989","geometry":{"type":"Point","coordinates":[98.0991878,36.350246]},"properties":{"name":"东庄村","level":"village","source":"OpenStreetMap","osmId":13366599989}},{"type":"Feature","id":"osm-node-5580144647","geometry":{"type":"Point","coordinates":[92.4247169,34.3166438]},"properties":{"name":"多尔玛村","level":"village","source":"OpenStreetMap","osmId":5580144647}},{"type":"Feature","id":"osm-node-13602509941","geometry":{"type":"Point","coordinates":[94.928636,36.4481855]},"properties":{"name":"富源村","level":"village","source":"OpenStreetMap","osmId":13602509941}},{"type":"Feature","id":"osm-node-4119221864","geometry":{"type":"Point","coordinates":[97.7236958,38.8379437]},"properties":{"name":"尕河","level":"village","source":"OpenStreetMap","osmId":4119221864}},{"type":"Feature","id":"osm-node-6173278263","geometry":{"type":"Point","coordinates":[98.9165439,37.2101539]},"properties":{"name":"尕河","level":"hamlet","source":"OpenStreetMap","osmId":6173278263}},{"type":"Feature","id":"osm-node-2469014298","geometry":{"type":"Point","coordinates":[90.9144091,38.1501638]},"properties":{"name":"尕斯","level":"village","source":"OpenStreetMap","osmId":2469014298}},{"type":"Feature","id":"osm-node-3054832042","geometry":{"type":"Point","coordinates":[99.0874103,36.8418083]},"properties":{"name":"冈干","level":"hamlet","source":"OpenStreetMap","osmId":3054832042}},{"type":"Feature","id":"osm-node-14028587679","geometry":{"type":"Point","coordinates":[90.6184602,38.1638609]},"properties":{"name":"岗茨村","level":"village","source":"OpenStreetMap","osmId":14028587679}},{"type":"Feature","id":"osm-node-4335036030","geometry":{"type":"Point","coordinates":[97.1442951,37.3366017]},"properties":{"name":"戈壁","level":"village","source":"OpenStreetMap","osmId":4335036030}},{"type":"Feature","id":"osm-node-5580144646","geometry":{"type":"Point","coordinates":[92.2383784,34.2219516]},"properties":{"name":"格日罗村","level":"village","source":"OpenStreetMap","osmId":5580144646}},{"type":"Feature","id":"osm-node-3320774454","geometry":{"type":"Point","coordinates":[98.1430728,36.2341732]},"properties":{"name":"关角牙合","level":"village","source":"OpenStreetMap","osmId":3320774454}},{"type":"Feature","id":"osm-node-6172766224","geometry":{"type":"Point","coordinates":[97.3903547,37.205365]},"properties":{"name":"郭里木","level":"village","source":"OpenStreetMap","osmId":6172766224}},{"type":"Feature","id":"osm-node-9903965038","geometry":{"type":"Point","coordinates":[98.1437825,36.4221649]},"properties":{"name":"果米村","level":"village","source":"OpenStreetMap","osmId":9903965038}},{"type":"Feature","id":"osm-node-4058604511","geometry":{"type":"Point","coordinates":[97.8905503,35.9664709]},"properties":{"name":"哈拉托洛海","level":"village","source":"OpenStreetMap","osmId":4058604511}},{"type":"Feature","id":"osm-node-13602509952","geometry":{"type":"Point","coordinates":[94.8088332,36.4357958]},"properties":{"name":"哈区农三队","level":"hamlet","source":"OpenStreetMap","osmId":13602509952}},{"type":"Feature","id":"osm-node-13602509953","geometry":{"type":"Point","coordinates":[94.8012495,36.4423556]},"properties":{"name":"哈区农一队","level":"hamlet","source":"OpenStreetMap","osmId":13602509953}},{"type":"Feature","id":"osm-node-13602509942","geometry":{"type":"Point","coordinates":[94.9061527,36.4319199]},"properties":{"name":"和谐村","level":"village","source":"OpenStreetMap","osmId":13602509942}},{"type":"Feature","id":"osm-node-4370792711","geometry":{"type":"Point","coordinates":[98.1531703,36.4331551]},"properties":{"name":"河北村","level":"village","source":"OpenStreetMap","osmId":4370792711}},{"type":"Feature","id":"osm-node-10252528516","geometry":{"type":"Point","coordinates":[98.5837406,37.0113181]},"properties":{"name":"河北村","level":"hamlet","source":"OpenStreetMap","osmId":10252528516}},{"type":"Feature","id":"osm-node-4370792712","geometry":{"type":"Point","coordinates":[98.128971,36.415622]},"properties":{"name":"河南村","level":"village","source":"OpenStreetMap","osmId":4370792712}},{"type":"Feature","id":"osm-node-10203485105","geometry":{"type":"Point","coordinates":[97.4264792,35.9651326]},"properties":{"name":"河西村","level":"village","source":"OpenStreetMap","osmId":10203485105}},{"type":"Feature","id":"osm-node-4203935101","geometry":{"type":"Point","coordinates":[97.3543439,37.3871887]},"properties":{"name":"红光村","level":"hamlet","source":"OpenStreetMap","osmId":4203935101}},{"type":"Feature","id":"osm-node-13602509933","geometry":{"type":"Point","coordinates":[94.9912713,36.3809917]},"properties":{"name":"红柳村","level":"village","source":"OpenStreetMap","osmId":13602509933}},{"type":"Feature","id":"osm-node-13602509946","geometry":{"type":"Point","coordinates":[94.8395026,36.4234872]},"properties":{"name":"胡杨城镇社区","level":"village","source":"OpenStreetMap","osmId":13602509946}},{"type":"Feature","id":"osm-node-13793651096","geometry":{"type":"Point","coordinates":[94.8526293,36.3608631]},"properties":{"name":"黄河源昆仑社区","level":"village","source":"OpenStreetMap","osmId":13793651096}},{"type":"Feature","id":"osm-node-4221772268","geometry":{"type":"Point","coordinates":[97.030071,39.1042895]},"properties":{"name":"建筑遗址?","level":"village","source":"OpenStreetMap","osmId":4221772268}},{"type":"Feature","id":"osm-node-4342281030","geometry":{"type":"Point","coordinates":[96.3906731,36.2192983]},"properties":{"name":"金水口","level":"village","source":"OpenStreetMap","osmId":4342281030}},{"type":"Feature","id":"osm-node-9903808903","geometry":{"type":"Point","coordinates":[95.7118382,36.4438286]},"properties":{"name":"菊花村","level":"village","source":"OpenStreetMap","osmId":9903808903}},{"type":"Feature","id":"osm-node-627734333","geometry":{"type":"Point","coordinates":[97.7040763,36.0103937]},"properties":{"name":"科尔","level":"village","source":"OpenStreetMap","osmId":627734333}},{"type":"Feature","id":"osm-node-10252528512","geometry":{"type":"Point","coordinates":[98.8620063,37.2054152]},"properties":{"name":"拉陇村","level":"hamlet","source":"OpenStreetMap","osmId":10252528512}},{"type":"Feature","id":"osm-node-5580205823","geometry":{"type":"Point","coordinates":[92.3561382,34.0983015]},"properties":{"name":"拉智村","level":"village","source":"OpenStreetMap","osmId":5580205823}},{"type":"Feature","id":"osm-node-13602509936","geometry":{"type":"Point","coordinates":[94.9378257,36.4651791]},"properties":{"name":"乐苑村","level":"village","source":"OpenStreetMap","osmId":13602509936}},{"type":"Feature","id":"osm-node-9865351498","geometry":{"type":"Point","coordinates":[98.2364865,36.6230041]},"properties":{"name":"联合村","level":"village","source":"OpenStreetMap","osmId":9865351498}},{"type":"Feature","id":"osm-node-9903965039","geometry":{"type":"Point","coordinates":[98.2410566,36.6256905]},"properties":{"name":"联合村","level":"village","source":"OpenStreetMap","osmId":9903965039}},{"type":"Feature","id":"osm-node-9903808901","geometry":{"type":"Point","coordinates":[95.7516115,36.4419119]},"properties":{"name":"龙羊村","level":"village","source":"OpenStreetMap","osmId":9903808901}},{"type":"Feature","id":"osm-node-4334102820","geometry":{"type":"Point","coordinates":[94.4863362,38.055928]},"properties":{"name":"马海","level":"hamlet","source":"OpenStreetMap","osmId":4334102820}},{"type":"Feature","id":"osm-node-12960763028","geometry":{"type":"Point","coordinates":[94.5318451,38.0497948]},"properties":{"name":"马海村","level":"village","source":"OpenStreetMap","osmId":12960763028}},{"type":"Feature","id":"osm-node-10203485065","geometry":{"type":"Point","coordinates":[97.8803515,35.8934781]},"properties":{"name":"孟克台村","level":"village","source":"OpenStreetMap","osmId":10203485065}},{"type":"Feature","id":"osm-node-13602509937","geometry":{"type":"Point","coordinates":[94.9227661,36.4640424]},"properties":{"name":"民康村","level":"village","source":"OpenStreetMap","osmId":13602509937}},{"type":"Feature","id":"osm-node-14028587678","geometry":{"type":"Point","coordinates":[90.6102254,38.1809222]},"properties":{"name":"莫河尔布鲁克村","level":"village","source":"OpenStreetMap","osmId":14028587678}},{"type":"Feature","id":"osm-node-13460327592","geometry":{"type":"Point","coordinates":[93.1324335,36.9443708]},"properties":{"name":"那棱格勒","level":"hamlet","source":"OpenStreetMap","osmId":13460327592}},{"type":"Feature","id":"osm-node-2663077838","geometry":{"type":"Point","coordinates":[94.5630769,35.8756317]},"properties":{"name":"纳赤台","level":"village","source":"OpenStreetMap","osmId":2663077838}},{"type":"Feature","id":"osm-node-4334102821","geometry":{"type":"Point","coordinates":[94.306916,37.9817948]},"properties":{"name":"南八仙","level":"hamlet","source":"OpenStreetMap","osmId":4334102821}},{"type":"Feature","id":"osm-node-5580205821","geometry":{"type":"Point","coordinates":[92.3010348,34.1353232]},"properties":{"name":"努日巴村","level":"village","source":"OpenStreetMap","osmId":5580205821}},{"type":"Feature","id":"osm-node-4342156092","geometry":{"type":"Point","coordinates":[96.4389657,36.3816264]},"properties":{"name":"诺木洪","level":"village","source":"OpenStreetMap","osmId":4342156092}},{"type":"Feature","id":"osm-node-10203485096","geometry":{"type":"Point","coordinates":[97.4074699,35.876045]},"properties":{"name":"诺木洪村","level":"village","source":"OpenStreetMap","osmId":10203485096}},{"type":"Feature","id":"osm-node-13602509947","geometry":{"type":"Point","coordinates":[94.8238744,36.4241554]},"properties":{"name":"清水河村","level":"village","source":"OpenStreetMap","osmId":13602509947}},{"type":"Feature","id":"osm-node-4471083793","geometry":{"type":"Point","coordinates":[94.4576335,36.4106896]},"properties":{"name":"清水泉","level":"hamlet","source":"OpenStreetMap","osmId":4471083793}},{"type":"Feature","id":"osm-node-3299310873","geometry":{"type":"Point","coordinates":[98.3666436,36.9476919]},"properties":{"name":"赛什克","level":"village","source":"OpenStreetMap","osmId":3299310873}},{"type":"Feature","id":"osm-node-3320774457","geometry":{"type":"Point","coordinates":[98.192977,36.2080537]},"properties":{"name":"赛什堂","level":"village","source":"OpenStreetMap","osmId":3320774457}},{"type":"Feature","id":"osm-node-1602546894","geometry":{"type":"Point","coordinates":[94.1620587,37.3490147]},"properties":{"name":"涩北气田","level":"village","source":"OpenStreetMap","osmId":1602546894}},{"type":"Feature","id":"osm-node-4058604513","geometry":{"type":"Point","coordinates":[97.9572361,35.925236]},"properties":{"name":"沙立克特","level":"village","source":"OpenStreetMap","osmId":4058604513}},{"type":"Feature","id":"osm-node-4342337309","geometry":{"type":"Point","coordinates":[96.9841432,36.2667096]},"properties":{"name":"沙日","level":"village","source":"OpenStreetMap","osmId":4342337309}},{"type":"Feature","id":"osm-node-9903965036","geometry":{"type":"Point","coordinates":[98.0001007,36.4259507]},"properties":{"name":"沙珠玉村","level":"village","source":"OpenStreetMap","osmId":9903965036}},{"type":"Feature","id":"osm-node-6172199810","geometry":{"type":"Point","coordinates":[97.8580507,35.9857693]},"properties":{"name":"上柴开","level":"village","source":"OpenStreetMap","osmId":6172199810}},{"type":"Feature","id":"osm-node-4058604514","geometry":{"type":"Point","coordinates":[97.9031817,36.0097023]},"properties":{"name":"四站","level":"village","source":"OpenStreetMap","osmId":4058604514}},{"type":"Feature","id":"osm-node-3320774458","geometry":{"type":"Point","coordinates":[98.2158074,36.1949691]},"properties":{"name":"寺院","level":"village","source":"OpenStreetMap","osmId":3320774458}},{"type":"Feature","id":"osm-node-6173278264","geometry":{"type":"Point","coordinates":[99.2603403,37.1809942]},"properties":{"name":"天棚","level":"village","source":"OpenStreetMap","osmId":6173278264}},{"type":"Feature","id":"osm-node-10158102199","geometry":{"type":"Point","coordinates":[93.6527546,36.8030749]},"properties":{"name":"团结村","level":"village","source":"OpenStreetMap","osmId":10158102199}},{"type":"Feature","id":"osm-node-9865375591","geometry":{"type":"Point","coordinates":[97.7803564,36.6094619]},"properties":{"name":"托海村","level":"village","source":"OpenStreetMap","osmId":9865375591}},{"type":"Feature","id":"osm-node-4471071455","geometry":{"type":"Point","coordinates":[94.6051442,36.3904906]},"properties":{"name":"托拉海","level":"village","source":"OpenStreetMap","osmId":4471071455}},{"type":"Feature","id":"osm-node-10203485098","geometry":{"type":"Point","coordinates":[97.3569894,35.8983238]},"properties":{"name":"托托村","level":"village","source":"OpenStreetMap","osmId":10203485098}},{"type":"Feature","id":"osm-node-13602509948","geometry":{"type":"Point","coordinates":[94.818426,36.4273934]},"properties":{"name":"拖拉海村","level":"village","source":"OpenStreetMap","osmId":13602509948}},{"type":"Feature","id":"osm-node-4342156093","geometry":{"type":"Point","coordinates":[96.428726,36.4635086]},"properties":{"name":"五大队三中队","level":"village","source":"OpenStreetMap","osmId":4342156093}},{"type":"Feature","id":"osm-node-2663815744","geometry":{"type":"Point","coordinates":[94.8095154,35.9494091]},"properties":{"name":"五十三道班","level":"village","source":"OpenStreetMap","osmId":2663815744}},{"type":"Feature","id":"osm-node-13602509954","geometry":{"type":"Point","coordinates":[94.7700708,36.4316031]},"properties":{"name":"西村","level":"village","source":"OpenStreetMap","osmId":13602509954}},{"type":"Feature","id":"osm-node-13108448327","geometry":{"type":"Point","coordinates":[94.3083375,35.7444107]},"properties":{"name":"西大滩","level":"village","source":"OpenStreetMap","osmId":13108448327}},{"type":"Feature","id":"osm-node-13098694027","geometry":{"type":"Point","coordinates":[93.5298187,37.6964131]},"properties":{"name":"西台社区","level":"village","source":"OpenStreetMap","osmId":13098694027}},{"type":"Feature","id":"osm-node-10252528514","geometry":{"type":"Point","coordinates":[98.8666051,37.1213998]},"properties":{"name":"西王母石室","level":"hamlet","source":"OpenStreetMap","osmId":10252528514}},{"type":"Feature","id":"osm-node-12960763027","geometry":{"type":"Point","coordinates":[94.1244264,38.1949014]},"properties":{"name":"狭丘旁","level":"hamlet","source":"OpenStreetMap","osmId":12960763027}},{"type":"Feature","id":"osm-node-4058604515","geometry":{"type":"Point","coordinates":[97.838853,35.99083]},"properties":{"name":"下柴开","level":"village","source":"OpenStreetMap","osmId":4058604515}},{"type":"Feature","id":"osm-node-13366599990","geometry":{"type":"Point","coordinates":[98.0916432,36.366157]},"properties":{"name":"下滩村","level":"village","source":"OpenStreetMap","osmId":13366599990}},{"type":"Feature","id":"osm-node-3320726822","geometry":{"type":"Point","coordinates":[98.061846,36.2718314]},"properties":{"name":"下西台","level":"village","source":"OpenStreetMap","osmId":3320726822}},{"type":"Feature","id":"osm-node-9903965037","geometry":{"type":"Point","coordinates":[98.1064791,36.4092901]},"properties":{"name":"夏塔拉村","level":"village","source":"OpenStreetMap","osmId":9903965037}},{"type":"Feature","id":"osm-node-10203485066","geometry":{"type":"Point","coordinates":[97.8887916,35.8579019]},"properties":{"name":"先锋村","level":"village","source":"OpenStreetMap","osmId":10203485066}},{"type":"Feature","id":"osm-node-13407965720","geometry":{"type":"Point","coordinates":[93.6744726,36.7891949]},"properties":{"name":"祥和村","level":"village","source":"OpenStreetMap","osmId":13407965720}},{"type":"Feature","id":"osm-node-13602509945","geometry":{"type":"Point","coordinates":[94.8811936,36.4359173]},"properties":{"name":"小岛村","level":"village","source":"OpenStreetMap","osmId":13602509945}},{"type":"Feature","id":"osm-node-10252528531","geometry":{"type":"Point","coordinates":[97.7331824,36.1288081]},"properties":{"name":"小夏滩村","level":"village","source":"OpenStreetMap","osmId":10252528531}},{"type":"Feature","id":"osm-node-10158102204","geometry":{"type":"Point","coordinates":[93.659658,36.7986039]},"properties":{"name":"小灶火","level":"village","source":"OpenStreetMap","osmId":10158102204}},{"type":"Feature","id":"osm-node-13602509938","geometry":{"type":"Point","coordinates":[94.9080461,36.4618527]},"properties":{"name":"新华村","level":"village","source":"OpenStreetMap","osmId":13602509938}},{"type":"Feature","id":"osm-node-9903965035","geometry":{"type":"Point","coordinates":[98.159453,36.4141801]},"properties":{"name":"新乐村","level":"village","source":"OpenStreetMap","osmId":9903965035}},{"type":"Feature","id":"osm-node-13602509955","geometry":{"type":"Point","coordinates":[94.4551966,36.3961494]},"properties":{"name":"新乐村","level":"village","source":"OpenStreetMap","osmId":13602509955}},{"type":"Feature","id":"osm-node-9903808904","geometry":{"type":"Point","coordinates":[95.7509449,36.4395721]},"properties":{"name":"新庄村","level":"village","source":"OpenStreetMap","osmId":9903808904}},{"type":"Feature","id":"osm-node-10158102198","geometry":{"type":"Point","coordinates":[93.6642216,36.795556]},"properties":{"name":"幸福村","level":"village","source":"OpenStreetMap","osmId":10158102198}},{"type":"Feature","id":"osm-node-13602509949","geometry":{"type":"Point","coordinates":[94.8204189,36.4288077]},"properties":{"name":"秀沟村","level":"village","source":"OpenStreetMap","osmId":13602509949}},{"type":"Feature","id":"osm-node-13602509940","geometry":{"type":"Point","coordinates":[94.9095206,36.4515004]},"properties":{"name":"盐桥村","level":"village","source":"OpenStreetMap","osmId":13602509940}},{"type":"Feature","id":"osm-node-5580205822","geometry":{"type":"Point","coordinates":[92.3431777,34.319054]},"properties":{"name":"要盖村","level":"village","source":"OpenStreetMap","osmId":5580205822}},{"type":"Feature","id":"osm-node-4342156096","geometry":{"type":"Point","coordinates":[96.4932526,36.4351439]},"properties":{"name":"一大队","level":"village","source":"OpenStreetMap","osmId":4342156096}},{"type":"Feature","id":"osm-node-4342156094","geometry":{"type":"Point","coordinates":[96.5197877,36.4351967]},"properties":{"name":"一大队青年队","level":"village","source":"OpenStreetMap","osmId":4342156094}},{"type":"Feature","id":"osm-node-4342156095","geometry":{"type":"Point","coordinates":[96.4743955,36.4383943]},"properties":{"name":"一大队三中队","level":"village","source":"OpenStreetMap","osmId":4342156095}},{"type":"Feature","id":"osm-node-627734326","geometry":{"type":"Point","coordinates":[97.4861403,36.0056095]},"properties":{"name":"伊克高里","level":"village","source":"OpenStreetMap","osmId":627734326}},{"type":"Feature","id":"osm-node-1602496038","geometry":{"type":"Point","coordinates":[95.870004,37.3249718]},"properties":{"name":"饮马峡","level":"village","source":"OpenStreetMap","osmId":1602496038}},{"type":"Feature","id":"osm-node-4334102822","geometry":{"type":"Point","coordinates":[94.954151,38.018506]},"properties":{"name":"鱼卡","level":"village","source":"OpenStreetMap","osmId":4334102822}},{"type":"Feature","id":"osm-node-13602509935","geometry":{"type":"Point","coordinates":[94.9529719,36.5106272]},"properties":{"name":"鱼水河村","level":"village","source":"OpenStreetMap","osmId":13602509935}},{"type":"Feature","id":"osm-node-3320774459","geometry":{"type":"Point","coordinates":[98.2491198,36.1877157]},"properties":{"name":"扎麻日","level":"village","source":"OpenStreetMap","osmId":3320774459}},{"type":"Feature","id":"osm-node-13394695526","geometry":{"type":"Point","coordinates":[94.8469409,36.3629509]},"properties":{"name":"长江源村","level":"village","source":"OpenStreetMap","osmId":13394695526}},{"type":"Feature","id":"osm-node-3320774460","geometry":{"type":"Point","coordinates":[98.2310997,36.1869309]},"properties":{"name":"智尕日","level":"village","source":"OpenStreetMap","osmId":3320774460}},{"type":"Feature","id":"osm-node-10203472381","geometry":{"type":"Point","coordinates":[98.5527929,35.5817623]},"properties":{"name":"智益","level":"village","source":"OpenStreetMap","osmId":10203472381}},{"type":"Feature","id":"osm-node-13602509951","geometry":{"type":"Point","coordinates":[94.8100744,36.4359132]},"properties":{"name":"中村","level":"village","source":"OpenStreetMap","osmId":13602509951}},{"type":"Feature","id":"osm-node-13602509943","geometry":{"type":"Point","coordinates":[94.911246,36.428844]},"properties":{"name":"中源村","level":"village","source":"OpenStreetMap","osmId":13602509943}},{"type":"Feature","id":"osm-node-4058604517","geometry":{"type":"Point","coordinates":[97.852578,35.994103]},"properties":{"name":"中庄","level":"village","source":"OpenStreetMap","osmId":4058604517}},{"type":"Feature","id":"osm-node-13602509944","geometry":{"type":"Point","coordinates":[94.9159533,36.4275056]},"properties":{"name":"众祥村","level":"village","source":"OpenStreetMap","osmId":13602509944}},{"type":"Feature","id":"osm-node-4342337310","geometry":{"type":"Point","coordinates":[96.9565565,36.2683452]},"properties":{"name":"宗加","level":"village","source":"OpenStreetMap","osmId":4342337310}},{"type":"Feature","id":"osm-node-627721604","geometry":{"type":"Point","coordinates":[94.1717953,37.3591889]},"properties":{"name":"Sebei","level":"hamlet","source":"OpenStreetMap","osmId":627721604}}]}
