{"type":"FeatureCollection","name":"海西州市县驻地与乡镇地名","source":{"dataset":"OpenStreetMap","relation":2707989,"license":"ODbL 1.0","attribution":"© OpenStreetMap contributors"},"features":[{"type":"Feature","id":"osm-node-8376113305","geometry":{"type":"Point","coordinates":[95.3600242,37.848687]},"properties":{"name":"大柴旦","level":"primary","place":"town","source":"OpenStreetMap","osmId":8376113305}},{"type":"Feature","id":"osm-node-244083618","geometry":{"type":"Point","coordinates":[97.36011,37.3690819]},"properties":{"name":"德令哈市","level":"primary","place":"city","source":"OpenStreetMap","osmId":244083618}},{"type":"Feature","id":"osm-node-244078648","geometry":{"type":"Point","coordinates":[98.0951891,36.3020273]},"properties":{"name":"都兰县","level":"primary","place":"city","source":"OpenStreetMap","osmId":244078648}},{"type":"Feature","id":"osm-node-315046176","geometry":{"type":"Point","coordinates":[94.9026289,36.4011402]},"properties":{"name":"格尔木市","level":"primary","place":"city","source":"OpenStreetMap","osmId":315046176}},{"type":"Feature","id":"osm-node-4483299030","geometry":{"type":"Point","coordinates":[90.8520023,38.2528141]},"properties":{"name":"茫崖市","level":"primary","place":"city","source":"OpenStreetMap","osmId":4483299030}},{"type":"Feature","id":"osm-node-8907111711","geometry":{"type":"Point","coordinates":[99.0228314,37.3007954]},"properties":{"name":"天峻县","level":"primary","place":"city","source":"OpenStreetMap","osmId":8907111711}},{"type":"Feature","id":"osm-node-3298702148","geometry":{"type":"Point","coordinates":[98.4799494,36.9283791]},"properties":{"name":"乌兰县","level":"primary","place":"city","source":"OpenStreetMap","osmId":3298702148}},{"type":"Feature","id":"osm-node-4058693847","geometry":{"type":"Point","coordinates":[97.5057998,36.0448827]},"properties":{"name":"巴隆乡","level":"town","place":"town","source":"OpenStreetMap","osmId":4058693847}},{"type":"Feature","id":"osm-node-3054832041","geometry":{"type":"Point","coordinates":[99.0785494,36.7915172]},"properties":{"name":"茶卡镇","level":"town","place":"town","source":"OpenStreetMap","osmId":3054832041}},{"type":"Feature","id":"osm-node-315046177","geometry":{"type":"Point","coordinates":[95.3021093,36.7957635]},"properties":{"name":"察尔汗","level":"town","place":"town","source":"OpenStreetMap","osmId":315046177}},{"type":"Feature","id":"osm-node-3969783714","geometry":{"type":"Point","coordinates":[95.7522823,36.4439307]},"properties":{"name":"大格勒乡","level":"town","place":"town","source":"OpenStreetMap","osmId":3969783714}},{"type":"Feature","id":"osm-node-3242145871","geometry":{"type":"Point","coordinates":[97.4158794,37.2178257]},"properties":{"name":"尕海镇","level":"town","place":"town","source":"OpenStreetMap","osmId":3242145871}},{"type":"Feature","id":"osm-node-4058604510","geometry":{"type":"Point","coordinates":[98.4091761,35.6597611]},"properties":{"name":"沟里乡","level":"town","place":"town","source":"OpenStreetMap","osmId":4058604510}},{"type":"Feature","id":"osm-node-3242146616","geometry":{"type":"Point","coordinates":[94.8231799,36.4308977]},"properties":{"name":"郭勒木德镇","level":"town","place":"town","source":"OpenStreetMap","osmId":3242146616}},{"type":"Feature","id":"osm-node-3886083089","geometry":{"type":"Point","coordinates":[96.7497268,37.3486062]},"properties":{"name":"怀头他拉镇","level":"town","place":"town","source":"OpenStreetMap","osmId":3886083089}},{"type":"Feature","id":"osm-node-3306049944","geometry":{"type":"Point","coordinates":[99.3238303,37.3388565]},"properties":{"name":"江河镇","level":"town","place":"town","source":"OpenStreetMap","osmId":3306049944}},{"type":"Feature","id":"osm-node-1602495997","geometry":{"type":"Point","coordinates":[98.2569839,36.9867209]},"properties":{"name":"柯柯镇","level":"town","place":"town","source":"OpenStreetMap","osmId":1602495997}},{"type":"Feature","id":"osm-node-3242145872","geometry":{"type":"Point","coordinates":[97.2047184,37.3121038]},"properties":{"name":"柯鲁柯镇","level":"town","place":"town","source":"OpenStreetMap","osmId":3242145872}},{"type":"Feature","id":"osm-node-3305537650","geometry":{"type":"Point","coordinates":[98.8383793,37.3640907]},"properties":{"name":"快尔玛乡","level":"town","place":"town","source":"OpenStreetMap","osmId":3305537650}},{"type":"Feature","id":"osm-node-2494631348","geometry":{"type":"Point","coordinates":[93.333492,38.7367371]},"properties":{"name":"冷湖镇","level":"town","place":"town","source":"OpenStreetMap","osmId":2494631348}},{"type":"Feature","id":"osm-node-3305796730","geometry":{"type":"Point","coordinates":[98.8234619,37.8789092]},"properties":{"name":"龙门乡","level":"town","place":"town","source":"OpenStreetMap","osmId":3305796730}},{"type":"Feature","id":"osm-node-2469014301","geometry":{"type":"Point","coordinates":[90.3109564,38.2577342]},"properties":{"name":"茫崖镇","level":"town","place":"town","source":"OpenStreetMap","osmId":2469014301}},{"type":"Feature","id":"osm-node-3305942108","geometry":{"type":"Point","coordinates":[99.1214572,38.1363097]},"properties":{"name":"木里镇","level":"town","place":"town","source":"OpenStreetMap","osmId":3305942108}},{"type":"Feature","id":"osm-node-3320774456","geometry":{"type":"Point","coordinates":[98.1671395,36.2200606]},"properties":{"name":"热水乡","level":"town","place":"town","source":"OpenStreetMap","osmId":3320774456}},{"type":"Feature","id":"osm-node-4119221866","geometry":{"type":"Point","coordinates":[98.4579549,37.2746243]},"properties":{"name":"生格乡","level":"town","place":"town","source":"OpenStreetMap","osmId":4119221866}},{"type":"Feature","id":"osm-node-4119221868","geometry":{"type":"Point","coordinates":[98.0279749,38.702342]},"properties":{"name":"苏里乡","level":"town","place":"town","source":"OpenStreetMap","osmId":4119221868}},{"type":"Feature","id":"osm-node-416018875","geometry":{"type":"Point","coordinates":[92.4401355,34.2159288]},"properties":{"name":"唐古拉山镇","level":"town","place":"town","source":"OpenStreetMap","osmId":416018875}},{"type":"Feature","id":"osm-node-4119388904","geometry":{"type":"Point","coordinates":[98.5346482,36.9964801]},"properties":{"name":"铜普镇","level":"town","place":"town","source":"OpenStreetMap","osmId":4119388904}},{"type":"Feature","id":"osm-node-3969784116","geometry":{"type":"Point","coordinates":[93.1590838,36.9085805]},"properties":{"name":"乌图美仁乡","level":"town","place":"town","source":"OpenStreetMap","osmId":3969784116}},{"type":"Feature","id":"osm-node-1602496003","geometry":{"type":"Point","coordinates":[95.5575122,37.3213638]},"properties":{"name":"锡铁山镇","level":"town","place":"town","source":"OpenStreetMap","osmId":1602496003}},{"type":"Feature","id":"osm-node-627734397","geometry":{"type":"Point","coordinates":[98.1496324,36.4240453]},"properties":{"name":"夏日哈镇","level":"town","place":"town","source":"OpenStreetMap","osmId":627734397}},{"type":"Feature","id":"osm-node-4058604516","geometry":{"type":"Point","coordinates":[97.9291573,35.939619]},"properties":{"name":"香加乡","level":"town","place":"town","source":"OpenStreetMap","osmId":4058604516}},{"type":"Feature","id":"osm-node-627734378","geometry":{"type":"Point","coordinates":[97.8879634,35.9946643]},"properties":{"name":"香日德镇","level":"town","place":"town","source":"OpenStreetMap","osmId":627734378}},{"type":"Feature","id":"osm-node-3299310874","geometry":{"type":"Point","coordinates":[97.8083639,37.3487495]},"properties":{"name":"蓄集乡","level":"town","place":"town","source":"OpenStreetMap","osmId":3299310874}},{"type":"Feature","id":"osm-node-3305537651","geometry":{"type":"Point","coordinates":[98.6316302,37.6776202]},"properties":{"name":"阳康乡","level":"town","place":"town","source":"OpenStreetMap","osmId":3305537651}},{"type":"Feature","id":"osm-node-3306049945","geometry":{"type":"Point","coordinates":[99.1344886,37.5187426]},"properties":{"name":"织合玛乡","level":"town","place":"town","source":"OpenStreetMap","osmId":3306049945}},{"type":"Feature","id":"osm-node-3306049946","geometry":{"type":"Point","coordinates":[99.3936982,37.6058468]},"properties":{"name":"舟群乡","level":"town","place":"town","source":"OpenStreetMap","osmId":3306049946}},{"type":"Feature","id":"osm-node-4342283721","geometry":{"type":"Point","coordinates":[96.456326,36.4343041]},"properties":{"name":"宗加镇","level":"town","place":"town","source":"OpenStreetMap","osmId":4342283721}}]}
